address,city,state,zip,scope_severity,Latitude,Longitude
100 GAY ST,MENARD,TX,76859,11,30.916775,-99.784158
100 HERMANN DR,DEL RIO,TX,78840,18,29.377289,-100.889284
100 N E LOOP 304,CROCKETT,TX,75835,11,31.335781,-95.465975
1000 AVE J,LAMPASAS,TX,76550,51,31.183225,-98.236306
1000 E MAIN ST,ROUND ROCK,TX,78664,9,30.511831,-97.66873
1000 FM 3220,CLIFTON,TX,76634,5,31.789427,-97.593053
1000 HWY 82 E,SHERMAN,TX,75090,15,33.668356,-96.60438
1000 MCKINLEY ST,BENBROOK,TX,76126,33,32.677307,-97.464949
1000 S KIOWA ST,WHEELER,TX,79096,15,35.438286,-100.277831
1000 SARA SWAMMY DR,SHERMAN,TX,75090,13,33.677432,-96.603373
1000 WIGGINS PKWY,MESQUITE,TX,75150,14,32.833827,-96.612644
1001 CENTRAL BLVD,BROWNSVILLE,TX,78520,76,25.921045,-97.512179
1001 WALLACE BLVD,AMARILLO,TX,79106,11,35.203425,-101.912839
1003 COLUMBIA,STAMFORD,TX,79553,37,32.933565,-99.784731
1005 IRA E. WOODS PARKWAY,GRAPEVINE,TX,76051,10,32.929532,-97.087541
10064 ALAMEDA AVENUE,SOCORRO,TX,79927,37,31.660147,-106.296793
1007 S WASHINGTON AVE,MARSHALL,TX,75670,8,32.535239,-94.368055
1008 CITIZENS TRAIL,TEXARKANA,TX,75501,44,33.426843,-94.077096
1008 ENTERPRISE BLVD,ROCKPORT,TX,78382,24,28.04045,-97.05122
1009 CLYDE ST,AMARILLO,TX,79106,13,35.204569,-101.897666
101 LIBERTY LN,ANSON,TX,79501,17,32.766337,-99.894329
101 MILLER DR,BROWNWOOD,TX,76801,18,31.677722,-98.995275
101 N PARKWAY,ALVARADO,TX,76009,8,32.407499,-97.218712
101 REESE DR,RED OAK,TX,75154,11,32.534727,-96.820104
101 S LANCASTER,MOULTON,TX,77975,14,29.572881,-97.149603
101 SAN MARCUS,WHITNEY,TX,76692,14,31.95092,-97.323351
101 WOODLAND PARK DR,SHEPHERD,TX,77371,26,30.503378,-94.986539
1010 DALLAS ST,WACO,TX,76704,8,31.570595,-97.132488
1010 EMERALD ISLE DR,DALLAS,TX,75218,9,32.827704,-96.710214
1010 W MAIN ST,HENDERSON,TX,75652,26,32.151681,-94.813262
1011 MAINLAND CENTER DR,TEXAS CITY,TX,77591,31,29.391934,-94.988437
10127 HUEBNER RD,SAN ANTONIO,TX,78240,25,29.53813,-98.587107
1013 S BRYAN RD,MISSION,TX,78572,56,26.194321,-98.311525
1014 WINDSOR LAKE BOULEVARD,THE WOODLANDS,TX,77384,28,30.211183,-95.46257
1015 N MAIN,MERIDIAN,TX,76665,10,31.930539,-97.662291
1019 HOLDEN ST,GLEN ROSE,TX,76043,9,32.241846,-97.747285
102 N BEECH ST,WOODVILLE,TX,75979,12,30.775263,-94.429447
1020 N COUNTY RD WEST,ODESSA,TX,79763,28,31.845313,-102.389964
1020 S 23RD ST,BEAUMONT,TX,77707,23,30.067459,-94.143196
1020 TASCOSA RD,AMARILLO,TX,79124,18,35.221075,-101.909219
1020 W 1ST ST,GROVETON,TX,75845,6,31.062333,-95.137413
1022 PRESIDENTIAL CORRIDOR HWY 21 E,CALDWELL,TX,77836,8,30.528611,-96.705888
1025 W YEAGUA,GROESBECK,TX,76642,18,31.524733,-96.547256
1026 E GOODE ST,QUITMAN,TX,75783,52,32.795008,-95.431505
103 N AVE H,OZONA,TX,76943,9,30.798496,-101.498604
103 TEAKWOOD ST,CENTERVILLE,TX,75833,21,31.251807,-95.973125
1034 LIBERTY PARK DR,AUSTIN,TX,78746,15,30.266391,-97.789279
10350 MONTANA AVENUE,EL PASO,TX,79925,56,31.796374,-106.338028
104 ENTERPRISE AVE,DEVINE,TX,78016,17,29.15293,-98.891213
104 N HWY 277,ELDORADO,TX,76936,16,30.86126,-100.599626
104 REX KERWIN COURT,PFLUGERVILLE,TX,78660,11,30.444444,-97.628358
10450 GOSLING RD,THE WOODLANDS,TX,77381,23,30.170207,-95.502977
105 HOSPITAL DR,CUERO,TX,77954,17,29.112633,-97.28938
105 N MAIN ST,SAVOY,TX,75479,23,33.599769,-96.364601
1050 GRAND BLVD.,BOERNE,TX,78006,21,29.774527,-98.734911
106 DEL NORTE DR,EL CAMPO,TX,77437,29,29.207661,-96.279888
106 KAHN ST,HALLETTSVILLE,TX,77964,14,29.445349,-96.95054
106 N BARON,BELLVILLE,TX,77418,28,29.95408,-96.263249
106 N BELTLINE RD,GARLAND,TX,75040,11,32.933652,-96.63149
107 E ROGERS,GANADO,TX,77962,33,29.038786,-96.512385
107 N MEDINA,LOCKHART,TX,78644,38,29.884394,-97.685085
107 STACY,WHITEHOUSE,TX,75791,21,32.215593,-95.221872
10700 ROLATER DR,FRISCO,TX,75035,20,33.139498,-96.786276
10800 FLORA MAE MEADOWS RD,HOUSTON,TX,77089,40,29.582107,-95.213719
10851 CRESCENT MOON DR,HOUSTON,TX,77064,74,29.925814,-95.581716
10880 EDGEMERE BLVD,EL PASO,TX,79935,37,31.790961,-106.324611
109 N MCKINNEY,SWEENY,TX,77480,17,29.046285,-95.688428
110 CHICKTOWN RD,GATESVILLE,TX,76528,13,31.435537,-97.780413
110 E LIVE OAK ST,AUSTIN,TX,78704,14,30.242046,-97.75187
110 W HWY 64,COOPER,TX,75432,33,33.375343,-95.700337
110 W TROUPE,MABANK,TX,75147,1,32.368829,-96.101799
1100 GALVESTON,LAREDO,TX,78040,53,27.511306,-99.485518
1100 N 4TH ST,LONGVIEW,TX,75601,44,32.508693,-94.730864
1100 W AVE J,MULESHOE,TX,79347,15,34.225435,-102.742352
1100 W BROADWAY,STANTON,TX,79782,20,32.127508,-101.800879
1100 W MINNESOTA RD,PHARR,TX,78577,41,26.242575,-98.190948
11001 CRESCENT MOON DR,HOUSTON,TX,77064,12,29.925852,-95.582854
1101 E LAKE ST,BROWNFIELD,TX,79316,38,33.182837,-102.261641
1101 GRACE ST,WICHITA FALLS,TX,76301,30,33.903097,-98.500328
1101 N HAMPTON RD,DESOTO,TX,75115,13,32.608492,-96.857745
1101 REBA MCENTIRE LN,DENISON,TX,75020,20,33.771691,-96.549287
1101 S ALAMEDA,CORPUS CHRISTI,TX,78404,27,27.781311,-97.40287
1101 WINDBELL DR,MESQUITE,TX,75149,19,32.780152,-96.621447
1102 RIVER RD,BOERNE,TX,78006,47,29.788873,-98.716794
11020 DESSAU RD,AUSTIN,TX,78754,20,30.369503,-97.668315
1104 S WILLIAM ST,ATLANTA,TX,75551,33,33.102316,-94.165625
1105 FITZGERALD,BANGS,TX,76823,9,31.713681,-99.120727
1105 N MAGNOLIA,LULING,TX,78648,18,29.69719,-97.646668
1105 ROCK PRAIRIE RD,COLLEGE STATION,TX,77845,20,30.579563,-96.299462
1105 W HWY 418,SILSBEE,TX,77656,12,30.361623,-94.185419
1106 GOLFVIEW,RICHMOND,TX,77469,17,29.564143,-95.75912
1108 E LOOP 304,CROCKETT,TX,75835,17,31.32338,-95.437923
1109 N THIRD ST,IOWA PARK,TX,76367,15,33.960911,-98.679674
111 COLLEGE ST,SCHULENBURG,TX,78956,16,29.685092,-96.90013
111 HOSPITAL DR,JUNCTION,TX,76849,39,30.497443,-99.779221
111 PARKS VILLAGE DR,ODESSA,TX,79765,21,31.912654,-102.287215
111 RUTHLYNN DR,LONGVIEW,TX,75601,34,32.53056,-94.744661
1110 HWY 135 S,OVERTON,TX,75684,33,32.287312,-94.95248
1110 RICE ST,GOLDTHWAITE,TX,76844,7,31.452122,-98.562969
1110 WESTVIEW DR,SEYMOUR,TX,76380,6,33.59906,-99.276178
11106 CHRISTUS HILLS,SAN ANTONIO,TX,78251,37,29.462133,-98.696376
1111 AVENUE P,RALLS,TX,79357,24,33.682571,-101.375185
1111 BEAVER RD,STRATFORD,TX,79084,13,36.341376,-102.063169
1111 ROCKINGHAM LN,RICHARDSON,TX,75080,32,32.965487,-96.740281
1111 W SHORE DR,RICHARDSON,TX,75080,9,32.964275,-96.749285
11110 TOM ADAMS DR,AUSTIN,TX,78753,6,30.371673,-97.671144
1112 GIBBINS RD,ARLINGTON,TX,76011,31,32.752178,-97.112169
1112 SMITH DR,ALVIN,TX,77511,10,29.43359,-95.241917
11127 CIRCLE DR,AUSTIN,TX,78736,20,30.22762,-97.951439
1115 ANDERSON,COLLEGE STATION,TX,77840,26,30.607831,-96.317738
1116 E LOOP 304,CROCKETT,TX,75835,12,31.323277,-95.437682
11169 SEAN HAGGERTY,EL PASO,TX,79934,40,31.934842,-106.425503
1117 S ADAMS ST,FREDERICKSBURG,TX,78624,27,30.259474,-98.877755
1119 S. RED RIVER EXPRESSWAY,BURKBURNETT,TX,76354,3,34.074731,-98.557023
112 BARNETT BLVD,HIGHLAND VILLAGE,TX,75077,17,33.074247,-97.072711
112 PIONEER DR,BOOKER,TX,79005,10,36.460822,-100.536467
112 RUTHLYNN DR,LONGVIEW,TX,75605,26,32.529179,-94.744745
1123 N BOLTON ST,JACKSONVILLE,TX,75766,17,31.979011,-95.278231
11353 SUGAR PARK LANE,SUGAR LAND,TX,77478,35,29.614783,-95.640541
114 MEDICAL DR,VICTORIA,TX,77904,20,28.855561,-97.020153
11406 RUSTIC ROCK DRIVE,AUSTIN,TX,78750,12,30.43063,-97.781907
11409 N CENTRAL EXPWY,DALLAS,TX,75243,9,32.905191,-96.770498
11466 HONOR LANE,TYLER,TX,75708,25,32.41896,-95.210564
1150 E LOOP 304,CROCKETT,TX,75835,13,31.315456,-95.436775
1150 WHITLEY ROAD,KELLER,TX,76248,9,32.915384,-97.253091
11525 VISTA DEL SOL DR,EL PASO,TX,79936,31,31.752143,-106.299644
1154 EAST HAWKINS PARKWAY,LONGVIEW,TX,75605,34,32.545752,-94.719427
11608 SCOTT SIMPSON DR,EL PASO,TX,79936,38,31.745444,-106.301002
1175 DENTON DR,BEAUMONT,TX,77707,30,30.067494,-94.138355
1181 N WILLIAMSON,GIDDINGS,TX,78942,8,30.19305,-96.937397
11830 NORTHPOINTE BOULEVARD,TOMBALL,TX,77377,33,30.033825,-95.610414
11855 LEBANON ROAD,FRISCO,TX,75035,16,33.114835,-96.775919
11902 RESOURCE PKWY,HOUSTON,TX,77089,15,29.586078,-95.209807
11910 RICHMOND AVE,HOUSTON,TX,77082,50,29.731766,-95.586227
120 MEADOWVIEW DR,JUSTIN,TX,76247,14,33.084579,-97.287735
120 STATE LOOP 92,LA GRANGE,TX,78945,24,29.886772,-96.871993
1200  JACKSON ST N,SULPHUR SPRINGS,TX,75482,20,33.1539,-95.59702
1200 7TH ST NW,CHILDRESS,TX,79201,10,34.435263,-100.206977
1200 FERGUSON ST,NACOGDOCHES,TX,75961,32,31.613222,-94.650468
1200 LANE,LAREDO,TX,78043,74,27.556989,-99.267161
1200 S BRYAN RD,MISSION,TX,78572,3,26.213786,-98.309651
1200 S HALL ST,ENNIS,TX,75119,8,32.312708,-96.63088
1200 W 15TH ST,MONAHANS,TX,79756,23,31.577202,-102.900321
12001 LONGHORN PARKWAY,AUSTIN,TX,78732,4,30.350632,-97.911168
12001 SHADOW CREEK PARKWAY,PEARLAND,TX,77584,30,29.578175,-95.404777
1201 CLARKS DR,ABILENE,TX,79602,28,32.439541,-99.702978
1201 FM 2685,GLADEWATER,TX,75647,21,32.550773,-94.975877
1201 HOLLAND LAKE DR,WEATHERFORD,TX,76086,3,32.743836,-97.779038
1201 N 15TH ST,LAMESA,TX,79331,34,32.743963,-101.966345
1201 W HOUSTON ST,LINDEN,TX,75563,13,33.010781,-94.377572
12021 METRIC BLVD,AUSTIN,TX,78758,14,30.402254,-97.700717
1203 FM 1277,SAN AUGUSTINE,TX,75972,15,31.523254,-94.144936
1204 SHERMAN DR,WHITESBORO,TX,76273,21,33.648437,-96.889939
12042 BITTERN HOLLOW,AUSTIN,TX,78758,9,30.401545,-97.699566
1205 SANTA FE DR,WEATHERFORD,TX,76086,17,32.744978,-97.781329
1206 N TRAVIS ST,LIBERTY,TX,77575,24,30.067859,-94.797176
1207 S REYNOLDS ST,GOLDTHWAITE,TX,76844,13,31.451018,-98.571995
1208 N LLANO,FREDERICKSBURG,TX,78624,25,30.284616,-98.860422
121 FM 971,GEORGETOWN,TX,78626,14,30.655106,-97.669812
1210 EASTWOOD DR,SEGUIN,TX,78155,15,29.564444,-97.947282
1212 S BRIDGE,WESLACO,TX,78596,51,26.149248,-97.982569
1213 N AVE B,SHINER,TX,77984,17,29.435962,-97.173639
1213 WATER ST,KERRVILLE,TX,78028,33,30.040434,-99.137023
1214 S. ALAMO ROAD,ALAMO,TX,78516,3,26.161458,-98.127136
1215 ASHBY,SEGUIN,TX,78155,25,29.566546,-97.947505
1215 HIGHWAY 124,WINNIE,TX,77665,17,29.825958,-94.365679
1219 EASTWOOD DR,SEGUIN,TX,78155,34,29.563264,-97.946767
1220 LOOP 459,MATHIS,TX,78368,40,28.091993,-97.81204
1220 SUNNY LANE,WHARTON,TX,77488,46,29.318775,-96.083647
1222 PARK WEST GREEN DRIVE,KATY,TX,77493,3,29.764569,-95.749545
1224 CORVADURA ST,GRAHAM,TX,76450,16,33.088414,-98.577814
12262 CITYSCAPE AVE,HOUSTON,TX,77047,5,29.625964,-95.385305
123 PECAN GROVE,PITTSBURG,TX,75686,21,32.990343,-94.957206
1241 W MARSHALL HOWARD BLVD,LITTLEFIELD,TX,79339,31,33.90985,-102.344915
1241 WESTRIDGE AVE,LANCASTER,TX,75146,26,32.604155,-96.769012
12520 FM 1840,DE KALB,TX,75559,24,33.503149,-94.606829
1260 ABRAMS RD,DALLAS,TX,75214,7,32.804606,-96.755707
12777 BEECHNUT ST,HOUSTON,TX,77072,35,29.688138,-95.606597
1280 SETTLERS RIDGE RD,CELINA,TX,75009,15,33.33624,-96.768648
12921 MISTY WILLOW DR,HOUSTON,TX,77070,54,29.960361,-95.556833
130 SPENCER LN,SAN ANTONIO,TX,78201,28,29.48383,-98.537527
1300 2ND ST,GRANBURY,TX,76048,8,32.43425,-97.766924
1300 CARL RAMERT DR,YOAKUM,TX,77995,44,29.30685,-97.130041
1300 MEMORIAL DR,DENISON,TX,75020,37,33.767714,-96.553365
1300 NORTH MAIN,BIG LAKE,TX,76932,28,31.203528,-101.461544
1300 SEVEN OAKS RD,BONHAM,TX,75418,11,33.586592,-96.164935
1301 COTTONWOOD CREEK TRAIL,CEDAR PARK,TX,78613,5,30.532052,-97.808509
1301 E QUEBEC AVE,MCALLEN,TX,78503,62,26.18532,-98.209968
1301 MALLETTE DRIVE,VICTORIA,TX,77904,12,28.86825,-97.010194
1301 MESA DR,PLAINVIEW,TX,79072,24,34.1934,-101.754824
1301 RICHARDSON DR,RICHARDSON,TX,75080,17,32.96746,-96.728001
1301 S TERRELL ST,FALFURRIAS,TX,78355,11,27.214534,-98.14808
1302 NOTTINGHAM ST,HUNTSVILLE,TX,77340,33,30.701936,-95.552519
1302 TOM TEMPLE DR,LUFKIN,TX,75904,10,31.316521,-94.7321
1303 E MAIN ST,HONEY GROVE,TX,75446,13,33.584606,-95.896812
1303 HWY 290 E,BRENHAM,TX,77833,25,30.143359,-96.376142
1307 MARTIN LUTHER KING DR,JEFFERSON,TX,75657,21,32.773874,-94.358615
1310 E BROADWAY,CUERO,TX,77954,9,29.087726,-97.265911
1314 3RD STREET,CORPUS CHRISTI,TX,78401,64,27.778879,-97.396444
1315 EAST STATE HWY 22,HAMILTON,TX,76531,14,31.705689,-98.091643
1315 TEXAS AVE,SAN ANTONIO,TX,78201,10,29.449949,-98.534836
1316 S FLORIDA,BORGER,TX,79007,13,35.651943,-101.393227
1321 PARK BAYOU DR,HOUSTON,TX,77077,13,29.759884,-95.626492
1321 W KENTUCKY,PAMPA,TX,79065,7,35.54725,-100.977371
13220 BRETON RIDGE ST,HOUSTON,TX,77070,9,29.96832,-95.541048
1325 FIRST ST,GRAHAM,TX,76450,12,33.102967,-98.573245
1339 EASTWOOD DR,SEGUIN,TX,78155,36,29.563272,-97.945469
1341 BLALOCK,HOUSTON,TX,77055,21,29.793742,-95.523529
13428 BISSONNET,HOUSTON,TX,77083,22,29.681915,-95.618632
135 1/2 HOSPITAL DR,ANGLETON,TX,77515,19,29.186365,-95.403949
1350 E LOOKOUT DR,RICHARDSON,TX,75082,8,32.984956,-96.700578
1350 MAIN ST,FRISCO,TX,75034,7,33.154271,-96.880509
13500 BRETON RIDGE,HOUSTON,TX,77070,28,29.96984,-95.54285
1351 SADLER,SAN MARCOS,TX,78666,42,29.848127,-97.949913
1351 SOUTH ELM STREET,KEMP,TX,75143,12,32.430429,-96.217484
13631 ARDFIELD DR,HOUSTON,TX,77070,35,29.972523,-95.544843
1373 NORTH AVENUE C,ELGIN,TX,78621,17,30.308019,-97.36044
138 S FM 1329,SAN DIEGO,TX,78384,19,27.76391,-98.2389
1400 BLACKSHILL DR,GAINESVILLE,TX,76240,27,33.654698,-97.158295
1400 HILLTOP RD,KERRVILLE,TX,78028,19,30.076418,-99.157122
1400 LAKE SHORE DR,WACO,TX,76708,42,31.593123,-97.176282
1400 MAIN ST,AMHERST,TX,79312,32,34.006265,-102.419315
1400 MEDICAL CENTER DRIVE,ENNIS,TX,75119,16,32.333778,-96.63479
1400 N MAIN ST,GIDDINGS,TX,78942,8,30.194616,-96.933948
1401 EAGLE LAKE ROAD,SEALY,TX,77474,30,29.772481,-96.169595
1401 HAMPTON RD,TEXARKANA,TX,75503,47,33.4719,-94.060813
1401 MAX COPELAND DR,MARBLE FALLS,TX,78654,10,30.581314,-98.267422
1401 RICE RD,TYLER,TX,75703,28,32.291612,-95.320748
1401 W MAIN ST,EDNA,TX,77957,23,28.967396,-96.667794
1402 E BROAD ST,MANSFIELD,TX,76063,18,32.565498,-97.123959
1402 W ELM,OLNEY,TX,76374,10,33.373238,-98.773718
1404 FRONT ST,CISCO,TX,76437,27,32.375851,-98.992052
1405 E WASHINGTON,NAVASOTA,TX,77868,13,30.395631,-96.077574
1405 HOLLAND,HOUSTON,TX,77029,51,29.765631,-95.233476
1405 VALHALLA DR,WHARTON,TX,77488,35,29.327507,-96.116145
1405 W STOREY ST,SAN SABA,TX,76877,38,31.192836,-98.732881
"14058 BEE CAVES PARKWAY, BLDG B",BEE CAVE,TX,78738,16,30.311516,-97.96453
1410 E SANDY LAKE RD,COPPELL,TX,75019,9,32.966898,-96.949977
14100 KARISSA COURT,HOUSTON,TX,77049,34,29.823682,-95.171407
1413 W MAIN ST,WAXAHACHIE,TX,75165,23,32.397318,-96.863624
1414 COLLEGE STREET,SULPHUR SPRINGS,TX,75482,28,33.135174,-95.569101
1415 N 18TH ST,MEMPHIS,TX,79245,8,34.739181,-100.552493
1419 MAHLMAN ST,ROSENBERG,TX,77471,37,29.553793,-95.786195
1420 MCCREARY RD,WYLIE,TX,75098,10,33.035572,-96.593742
1424 FALLBROOK DRIVE,HOUSTON,TX,77038,39,29.921597,-95.445902
1424 MARTIN LUTHER KING JR LN,TEMPLE,TX,76504,8,31.080648,-97.343428
1433 VETERANS MEMORIAL PARKWAY,HUNTSVILLE,TX,77340,11,30.702555,-95.574833
144 BULLDOG AVENUE,JASPER,TX,75951,13,30.900573,-93.99695
1440 RIVER RD,BOERNE,TX,78006,34,29.789906,-98.709554
1443 NORTH MAIN,JAYTON,TX,79528,10,33.257755,-100.573921
1448 HOUSTON ST,WILLS POINT,TX,75169,52,32.698475,-95.99328
14655 PRESTON RD,DALLAS,TX,75254,23,32.948175,-96.803797
14703 EAGLE VISTA DRIVE BLDG 601B,HOUSTON,TX,77077,18,29.760399,-95.644135
1475 RAYNOLDS ST,EL PASO,TX,79903,19,31.786872,-106.433234
1480 KATY FLEWELLEN,KATY,TX,77494,10,29.768001,-95.82141
149 KLATTENHOFF LANE,HUTTO,TX,78634,31,30.511759,-97.579317
14949 MESA DR,HUMBLE,TX,77396,9,29.935747,-95.269992
150 GIBSON RD,ATHENS,TX,75751,34,32.174692,-95.849297
150 S.E. 47TH STREET,PARIS,TX,75462,17,33.659903,-95.497509
1500 AUTUMN DR,GRAPEVINE,TX,76051,30,32.945732,-97.091758
1500 COTTONWOOD CREEK TRAIL,CEDAR PARK,TX,78613,13,30.535849,-97.808029
1500 MEDICAL AVENUE,COLLEGE STATION,TX,77845,3,30.584513,-96.274512
1500 SUNSET DR,FRIENDSWOOD,TX,77546,23,29.506792,-95.193144
1501 7TH ST,WICHITA FALLS,TX,76301,11,33.907965,-98.501813
1501 S MAIN ST,LOCKHART,TX,78644,30,29.866055,-97.669629
15015 CYPRESS WOODS MEDICAL DR,HOUSTON,TX,77014,27,29.997643,-95.468333
1504 NORTH FIRST ST,HASKELL,TX,79521,10,33.158425,-99.746229
1504 OAK ST,JOURDANTON,TX,78026,37,28.923899,-98.536764
1504 W KENTUCKY AVE,PAMPA,TX,79065,39,35.548659,-100.978706
1505 S CLOSNER,EDINBURG,TX,78539,39,26.287805,-98.165169
1505 W HWY 290,DRIPPING SPRINGS,TX,78620,8,30.199235,-98.109519
1506 CHILDRESS ST,WELLINGTON,TX,79095,10,34.84804,-100.216402
151 COUNTRY MEADOWS BOULEVARD,WAXAHACHIE,TX,75165,10,32.432384,-96.835706
1510 N PLANO RD,RICHARDSON,TX,75081,6,32.966695,-96.699027
1511 MARLANDWOOD RD,TEMPLE,TX,76502,11,31.063276,-97.369914
1511 MONTEZUMA STREET,COLUMBUS,TX,78934,20,29.698969,-96.558191
1514 INDIAN CREEK RD,BROWNWOOD,TX,76801,33,31.677614,-98.963875
1515 N ELM ST,LANCASTER,TX,75134,14,32.606852,-96.76509
1515 W MAIN,BELLVILLE,TX,77418,7,29.963891,-96.278783
1521 E RUSK,JACKSONVILLE,TX,75766,57,31.964371,-95.246064
1525 PLEASANT VALLEY RD,GARLAND,TX,75040,5,32.935478,-96.608328
1525 TULL DR,KATY,TX,77449,39,29.790404,-95.741934
15366 OAK ST,LYTLE,TX,78052,57,29.229874,-98.801419
1555 POWELL AVENUE,BELTON,TX,76513,20,30.983551,-97.521848
1575 BELVIDERE,EL PASO,TX,79912,27,31.857879,-106.522433
15880 WALLISVILLE ROAD,HOUSTON,TX,77049,37,29.81079,-95.153029
159 MONTAGUE AVE,BANDERA,TX,78003,23,29.732587,-99.081929
1599 LOMALAND DR,EL PASO,TX,79935,32,31.756659,-106.329774
1600 GRAND LAKE DR,CONROE,TX,77301,27,30.281415,-95.466459
1600 JOSEPHINE ST,SWEETWATER,TX,79556,28,32.478985,-100.390477
1600 MURCHISON RD,EL PASO,TX,79902,51,31.779724,-106.481075
1600 N I H 35,SAN MARCOS,TX,78666,29,29.893526,-97.910332
1600 TEXAS ST,FORT WORTH,TX,76102,16,32.749469,-97.343311
1601 KIRKLAND DR,AMARILLO,TX,79106,27,35.193922,-101.909191
1601 NE MUSTANG,ANDREWS,TX,79714,13,32.338091,-102.544292
16044 COUNTY ROAD 165,TYLER,TX,75703,20,32.235066,-95.321028
1606 MEMORIAL AVE,MOUNT PLEASANT,TX,75455,28,33.171874,-94.973993
1610 RICHARDSON DR,RICHARDSON,TX,75080,1,32.971791,-96.726976
1611 W ROYALL BLVD,MALAKOFF,TX,75148,25,32.166066,-96.034631
1615 ELEVENTH ST,FLORESVILLE,TX,78114,33,29.162771,-98.175887
1615 HILLENDAHL RD,HOUSTON,TX,77055,29,29.800191,-95.494581
1618 KIRBY RD,CARROLLTON,TX,75006,11,32.947757,-96.898886
1620 MAGNOLIA,LIBERTY,TX,77575,12,30.068589,-94.801923
1620 US 59 N,LIVINGSTON,TX,77351,13,30.728933,-94.937885
1621 BUTLER,DIMMITT,TX,79027,13,34.540882,-102.336798
1621 COIT RD,PLANO,TX,75075,4,33.021297,-96.76916
16219 RANCH ROAD 620 NORTH,AUSTIN,TX,78717,3,30.508494,-97.714105
1623 W NEW HOPE DR,CEDAR PARK,TX,78613,4,30.527271,-97.856778
1637 N KING ST,SEGUIN,TX,78155,26,29.587006,-97.949838
1638 VZ CR 1803,GRAND SALINE,TX,75140,26,32.690567,-95.71309
1640 FAIRWAY,KYLE,TX,78640,23,30.021328,-97.888985
16550 RETAMA PARKWAY,SELMA,TX,78154,28,29.580498,-98.313548
1670 LINGLEVILLE RD,STEPHENVILLE,TX,76401,16,32.224586,-98.228157
169 LAKE PARK RD,LEWISVILLE,TX,75057,21,33.072198,-97.01222
169 MEDICAL DR,PEARSALL,TX,78061,29,28.897673,-99.118556
169 S OAK ST,VAN,TX,75790,12,32.523067,-95.642453
1690 N. TREADWAY BLVD.,ABILENE,TX,79601,38,32.468414,-99.726116
170 STONEBRIDGE LANE,SOUTHLAKE,TX,76092,12,32.938292,-97.188737
1700 E SAUNDERS ST,LAREDO,TX,78044,5,27.511299,-99.49489
1700 E STONE ST,BRENHAM,TX,77833,13,30.154451,-96.376495
1700 MARLANDWOOD RD,TEMPLE,TX,76502,16,31.065783,-97.37266
1700 N WASHINGTON,PILOT POINT,TX,76258,4,33.412998,-96.943215
1700 ONION CREEK PKWY,AUSTIN,TX,78748,27,30.13867,-97.802613
1700 S EXPRESSWAY 77,RAYMONDVILLE,TX,78580,51,26.48146,-97.78305
1700 WOODGATE DRIVE,WACO,TX,76712,23,31.482515,-97.215403
1701 TOURNAMENT TRAIL DR,LAREDO,TX,78041,27,27.556714,-99.475079
1704 N 1ST,MERKEL,TX,79536,10,32.471848,-100.021601
1705 JACKSON ST,RICHMOND,TX,77469,11,29.575843,-95.769862
1715 MARTIN DR,WEATHERFORD,TX,76086,12,32.737845,-97.786103
1717 A NORFOLK AVE,LUBBOCK,TX,79416,22,33.580943,-101.898765
1720 N LOGAN ST,TEXAS CITY,TX,77590,33,29.40114,-94.930558
1720 N MCDONALD,MCKINNEY,TX,75069,37,33.222633,-96.612483
17231 MILL FOREST,WEBSTER,TX,77598,21,29.546058,-95.122791
1725 OLD BRANDON RD,HILLSBORO,TX,76645,18,32.017126,-97.091559
1737 N LOOP W,HOUSTON,TX,77008,22,29.811341,-95.43223
1751 N 15TH ST,ABILENE,TX,79603,26,32.466951,-99.741789
17600 CALI DR,HOUSTON,TX,77090,22,30.023696,-95.443049
17751 PARK VALLEY DR,ROUND ROCK,TX,78681,18,30.51342,-97.718518
1800 13TH ST,BAY CITY,TX,77414,9,28.989086,-95.968323
1800 N BROADWAY ST,BALLINGER,TX,76821,9,31.750136,-99.964171
1800 WEST 9TH ST,CLIFTON,TX,76634,2,31.775917,-97.587802
1801 PEARSON AVE,MCKINNEY,TX,75069,19,33.21167,-96.629472
1802 S 31ST,TEMPLE,TX,76504,11,31.083609,-97.364318
1803 HIGHWAY 243 EAST,KAUFMAN,TX,75142,10,32.588313,-96.291794
1803 WESCOTT AVENUE,SUGAR LAND,TX,77479,34,29.58748,-95.643593
1809 N HWY 87,BIG SPRING,TX,79720,32,32.236424,-101.472269
1810 OLD GRANGER ROAD,TAYLOR,TX,76574,17,30.586386,-97.40909
1811 SIXTH ST,FLORESVILLE,TX,78114,24,29.162771,-98.175887
1814 ATRIUM PLACE,HARLINGEN,TX,78550,59,26.255523,-97.667502
1816 TILE FACTORY RD,PALESTINE,TX,75801,42,31.732073,-95.676068
1819 MEMORIAL DR,PECOS,TX,79772,19,31.405234,-103.501142
1850 W PLEASANT RUN RD,LANCASTER,TX,75146,17,32.603419,-96.798459
18514 SONTERRA PLACE,SAN ANTONIO,TX,78258,20,29.612701,-98.497423
1855 CHEYENNE,CARROLLTON,TX,75010,14,33.030218,-96.886151
1855 W GOODWIN,PLEASANTON,TX,78064,18,28.959698,-98.513879
18648 HILLCREST RD,DALLAS,TX,75252,16,33.004915,-96.782717
1870 S JOHN KING BLVD,ROCKWALL,TX,75032,19,32.905735,-96.431824
18803 HARDY OAK,SAN ANTONIO,TX,78258,23,29.61758,-98.478454
1884 LOOP 343 WEST,RUSK,TX,75785,8,31.813578,-95.0965
1900 E CALIFORNIA ST,GAINESVILLE,TX,76240,6,33.624342,-97.124221
1900 MEDICAL PKWY,SAN MARCOS,TX,78666,34,29.854998,-97.946355
1900 N FRANCES ST,TERRELL,TX,75160,14,32.756441,-96.263958
1900 O'NEAL ST,GAINESVILLE,TX,76240,12,33.647753,-97.037069
1900 W STATE HWY 6,WACO,TX,76712,16,31.524205,-97.223456
1901 S TRADE DAYS BLVD,CANTON,TX,75103,33,32.533888,-95.863081
1901 WHIPPOORWILL,KILGORE,TX,75662,43,32.370876,-94.859625
1902 FM 3036,ROCKPORT,TX,78382,44,28.062329,-97.055259
1907 REFINERY RD,GAINESVILLE,TX,76240,13,33.644123,-97.153606
1910 MEDI PARK DR,AMARILLO,TX,79106,4,35.192616,-101.91479
1915 GREENWOOD ST,SAN ANGELO,TX,76901,17,31.472776,-100.474659
1917 LOHMANS CROSSING RD,LAKEWAY,TX,78734,16,30.347601,-97.975425
1939 BANDERA RD,SAN ANTONIO,TX,78228,38,29.471968,-98.57728
1941 CHESTNUT ST,COLORADO CITY,TX,79512,25,32.406074,-100.86428
19424 MCKAY DR,HUMBLE,TX,77338,31,29.999258,-95.274628
1950 S LAS VEGAS TRAIL,WHITE SETTLEMENT,TX,76108,29,32.739655,-97.467186
1960 BEDFORD RD,BEDFORD,TX,76021,16,32.844485,-97.136794
19638 STONE OAK PARKWAY,SAN ANTONIO,TX,78258,39,29.638546,-98.494271
2 TOWERS PARK LN,SAN ANTONIO,TX,78209,27,29.463989,-98.445956
200 CARLA ST,ZAPATA,TX,78076,55,26.899661,-99.257768
200 COUNTY RD 616,BROWNWOOD,TX,76802,7,31.746903,-98.96713
200 E RYAN ST,BOERNE,TX,78006,29,29.796618,-98.732
200 LIVE OAK ST,ATLANTA,TX,75551,16,33.107277,-94.165796
200 RIVERSIDE DR,UVALDE,TX,78801,23,29.21028,-99.775053
200 SOUTH B AVE,CROWELL,TX,79227,4,33.968163,-99.641288
200 SOUTHWEST 25TH AVE,MINERAL WELLS,TX,76067,15,32.802549,-98.145574
200 VETERANS DR,FLORESVILLE,TX,78114,24,29.129642,-98.145836
2000 BEAUMONT ST,BAYTOWN,TX,77520,21,29.746477,-94.955365
2000 HOLLY HALL ST,HOUSTON,TX,77054,5,29.683939,-95.401575
2000 N MAIN,MIDLAND,TX,79705,45,32.018363,-102.077126
2000 W BAKER RD,BAYTOWN,TX,77521,21,29.770392,-94.982854
2000 WEST AUDIE MURPHY PKWAY,FARMERSVILLE,TX,75442,16,33.159759,-96.391868
2001 6TH ST,BALLINGER,TX,76821,11,31.752448,-99.964734
2001 AVE E,HONDO,TX,78861,26,29.398586,-99.176245
2001 E 29TH ST,BRYAN,TX,77802,26,30.657801,-96.355709
2001 FOREST RIDGE DR,BEDFORD,TX,76021,8,32.841605,-97.142663
2001 SCENIC RD,GEORGETOWN,TX,78626,6,30.625274,-97.686999
2003 N EDWARDS ST,MOUNT PLEASANT,TX,75455,41,33.175151,-94.985984
2003 W HUTCHINS PLACE,SAN ANTONIO,TX,78224,40,29.346352,-98.539608
201 E 15TH,FRIONA,TX,79035,5,34.646391,-102.717362
201 E CHESTNUT ST,ARCHER CITY,TX,76351,25,33.591957,-98.627474
201 E THOMPSON ST,DECATUR,TX,76234,17,33.222124,-97.585041
201 SOUTH JOHN REDDITT DRIVE,LUFKIN,TX,75904,22,31.331919,-94.75852
201 SWIFT ST,REFUGIO,TX,78377,21,28.307377,-97.279311
201 SYCAMORE SCHOOL RD,FORT WORTH,TX,76134,26,32.634606,-97.325309
201 WATERMERE DRIVE,SOUTHLAKE,TX,76092,26,32.932311,-97.194651
2018 PULLIAM,SAN ANGELO,TX,76903,4,31.471467,-100.402302
2019 N FRAZIER,CONROE,TX,77301,18,30.33352,-95.467721
202 BILLIE DR,FREDERICKSBURG,TX,78624,35,30.256994,-98.884345
202 FORTUNE DR,CORPUS CHRISTI,TX,78405,43,27.762664,-97.458812
2021 SHOAF DR,IRVING,TX,75061,24,32.835219,-96.948656
203 GIBBS BLVD,GLEN ROSE,TX,76043,5,32.247276,-97.743095
2034 SUNDANCE PKWY,NEW BRAUNFELS,TX,78130,28,29.732661,-98.095189
2035 N GRANBURY ST,CLEBURNE,TX,76031,16,32.365385,-97.406468
204 OAK DRIVE SOUTH,LAKE JACKSON,TX,77566,42,29.031668,-95.45777
204 W NASH,TERRELL,TX,75160,6,32.738035,-96.278692
204 WALTER ST,YOAKUM,TX,77995,33,29.29406,-97.158615
205 BEECH ST,FARMERSVILLE,TX,75442,19,33.158009,-96.357676
205 N BONNIE BRAE,DENTON,TX,76201,12,33.216378,-97.162874
206 HALEY RD,JOHNSON CITY,TX,78636,29,30.270855,-98.401582
206 N SMITH ST,WEIMAR,TX,78962,25,29.703726,-96.771784
206 STORRS,ROCKWALL,TX,75087,23,32.926948,-96.458546
206 W P ST,DEER PARK,TX,77536,28,29.684195,-95.125911
206 WALLS DR,CLEBURNE,TX,76033,10,32.330479,-97.440787
207 E PARKERVILLE RD,DESOTO,TX,75115,12,32.576057,-96.854353
207 W MERRITT ST,MARSHALL,TX,75670,13,32.534889,-94.370367
208 MAPLE ST,LULING,TX,78648,5,29.672371,-97.632281
208 N PRAIRIE ST,PILOT POINT,TX,76258,24,33.398641,-96.957812
208 SOUTH UTAH,LA PORTE,TX,77571,44,29.665631,-95.014957
209 COUNTRY CLUB DR,KARNES CITY,TX,78118,26,28.883655,-97.90705
209 S 3RD ST,KENEDY,TX,78119,9,28.819085,-97.850684
2091 BANDERA HWY,KERRVILLE,TX,78028,30,30.016061,-99.125605
210 E 37TH ST,SNYDER,TX,79549,19,32.704272,-100.890104
210 GULF FREEWAY,TEXAS CITY,TX,77591,16,29.385507,-95.014569
210 PIPELINE RD,SULPHUR SPRINGS,TX,75482,24,33.155308,-95.594706
210 RICE ST,NEW BOSTON,TX,75570,81,33.461216,-94.414748
210 TEXAS BLVD,DALHART,TX,79022,13,36.051614,-102.520066
210 WEST AVE,LEVELLAND,TX,79336,27,33.590892,-102.387111
210 WEST WINDCREST ST,FREDERICKSBURG,TX,78624,30,30.264122,-98.882895
2100 CANNON DR,MANSFIELD,TX,76063,7,32.576485,-97.096035
2100 DOVER CROSSING LANE,NAVASOTA,TX,77868,27,30.383369,-96.008619
2101 FRATE BARKER RD,AUSTIN,TX,78748,19,30.149054,-97.840759
2101 GREENHOUSE ROAD,HOUSTON,TX,77084,44,29.793531,-95.706516
2101 NORTHGATE DR,IRVING,TX,75062,13,32.856053,-96.974674
2101 TREASURE HILLS BLVD,HARLINGEN,TX,78550,16,26.175317,-97.666414
2104 N KARNES,CAMERON,TX,76520,17,30.869212,-96.982125
2108 15TH STREET,BRIDGEPORT,TX,76426,18,33.220341,-97.751351
2109 SOUTH K ST,MC ALLEN,TX,78503,24,26.180827,-98.210931
211 E JASPER ST,JACKSBORO,TX,76458,11,33.223059,-98.156937
211 N MAIN,BREMOND,TX,76629,19,31.167544,-96.674839
2112 FORUM PARKWAY,BEDFORD,TX,76021,8,32.841582,-97.112208
212 NW 10TH ST,SEMINOLE,TX,79360,10,32.722108,-102.655553
2122 PARK BEND DR,AUSTIN,TX,78758,10,30.40859,-97.702865
2124 PALUXY HWY,GRANBURY,TX,76048,6,32.419925,-97.815975
2127 PRESTON ST,RICHMOND,TX,77469,26,29.584315,-95.781238
2129 SKYLINE DR,FORT WORTH,TX,76114,17,32.793254,-97.398958
2131 ALPINE RD,LONGVIEW,TX,75601,33,32.520125,-94.706717
2135 N DENTON DR,CARROLLTON,TX,75006,10,32.975021,-96.907862
214 JONES RD,ELKHART,TX,75839,24,31.619122,-95.579002
215 E PLAZA BLVD,HURST,TX,76053,10,32.826273,-97.165155
215 FM 161 BUSINESS SOUTH,HUGHES SPRINGS,TX,75656,29,32.953226,-94.599193
215 MARGARET ST,LINDALE,TX,75771,30,32.522174,-95.412406
2170 NORTH LAKE FOREST DRIVE,MCKINNEY,TX,75071,18,33.221142,-96.677044
21727 PROVINCIAL BLVD,KATY,TX,77450,38,29.778025,-95.746599
218 219 N KING ST,ALICE,TX,78332,19,27.753087,-98.075613
218 BALTIC,EDINBURG,TX,78539,49,26.303634,-98.189328
220 DAVENPORT ST,ITALY,TX,76651,4,32.181569,-96.896855
220 E ASH STREET,HUNTINGTON,TX,75949,8,31.278076,-94.574076
2200 HWY 80 W,GLADEWATER,TX,75647,24,32.530284,-94.909956
2201 HORSESHOE LN,LONGVIEW,TX,75605,12,32.535731,-94.749561
2201 MENARD HWY,BRADY,TX,76825,13,31.110535,-99.337288
2202 N TRAVIS AVE,CAMERON,TX,76520,14,30.868578,-96.973581
2204 PEASE ST,HARLINGEN,TX,78550,24,26.173578,-97.670954
2208 N LOOP 250 W,MIDLAND,TX,79707,14,32.003498,-102.153128
221 CEDAR DR,PORTLAND,TX,78374,44,27.893833,-97.312245
2210 HOWARD ST,SAN ANGELO,TX,76901,12,31.471672,-100.475874
2212 W REAGAN ST,PALESTINE,TX,75801,38,31.746422,-95.647348
222 BERTETTI DR,SAN ANTONIO,TX,78227,23,29.399644,-98.652258
222 FM 1077,BANDERA,TX,78003,35,29.724328,-99.104014
222 N FARMER,CROSBYTON,TX,79322,22,33.662247,-101.244288
2224 N CARROLL BLVD,DENTON,TX,76201,9,33.235048,-97.136656
2228 SEAWALL BLVD,GALVESTON,TX,77550,5,29.291096,-94.788285
2229 N CARROLL BLVD,DENTON,TX,76201,8,33.235833,-97.13799
223 S RESLER,EL PASO,TX,79912,16,31.83192,-106.551873
2231 HIGHWAY 80 E,MESQUITE,TX,75150,11,32.793748,-96.631015
224 E 2ND ST,DUMAS,TX,79029,2,35.864457,-101.971275
224 E 6TH ST,BAIRD,TX,79504,13,32.39639,-99.391835
224 W PLEASANT RUN RD,CEDAR HILL,TX,75104,7,32.603932,-96.948753
2244 BRINKER RD,DENTON,TX,76208,13,33.185241,-97.097287
2245 MARSH LN,CARROLLTON,TX,75006,22,32.972559,-96.856993
225 E WARD ST,GOLIAD,TX,77963,9,28.679495,-97.391029
225 N SOWERS RD,IRVING,TX,75061,6,32.815609,-96.95344
225 S MAIN ST,VIDOR,TX,77662,5,30.123067,-94.011185
2265 S SYCAMORE ST,PALESTINE,TX,75801,16,31.730082,-95.628073
227 RUSSELL BLVD,NACOGDOCHES,TX,75965,26,31.655825,-94.654208
230 S CLARK RD,CEDAR HILL,TX,75104,18,32.586564,-96.94135
2300 JACK FINNEY BLVD,GREENVILLE,TX,75402,22,33.079409,-96.103142
2300 SOUTH OAK GROVE RD,ENNIS,TX,75119,14,32.31052,-96.614694
2301 N OREGON ST,EL PASO,TX,79902,40,31.773661,-106.50143
231 KINGWOOD ST,HEREFORD,TX,79045,6,34.827146,-102.42332
2310 SOUTH ELDRIDGE PARKWAY,HOUSTON,TX,77077,13,29.74035,-95.624531
2311 WEST WASHINGTON,STEPHENVILLE,TX,76401,7,32.208276,-98.229543
2320 LAKE SHORE DR,WACO,TX,76708,31,31.589751,-97.187377
2322 MORGAN AVE,CORPUS CHRISTI,TX,78405,72,27.778089,-97.41543
2333 MANOR DR,BRYAN,TX,77802,5,30.658444,-96.35056
23450 PINE SHADOW LN,PORTER,TX,77365,13,30.106576,-95.238215
2350 FM 1092,MISSOURI CITY,TX,77459,18,29.585596,-95.565129
23553 WEST FERNHURST DRIVE,KATY,TX,77494,22,29.776282,-95.7839
23775 KINGWOOD PLACE,KINGWOOD,TX,77339,15,30.060351,-95.254475
2400 QUAKER AVE,LUBBOCK,TX,79410,32,33.571976,-101.905385
2400 WEST BROWN STREET,SAN SABA,TX,76877,16,31.198455,-98.742372
2401 DEVELOPMENT BLVD.,BELLMEAD,TX,76705,27,31.610333,-97.099407
2401 SOUTH 31ST ST,TEMPLE,TX,76504,5,31.081626,-97.363028
2404 HWY 155,PALESTINE,TX,75803,29,31.788343,-95.618974
2407 WEST MAIN STREET,CLARKSVILLE,TX,75426,18,33.613536,-95.085348
2409 E HOLCOMBE BLVD,HOUSTON,TX,77021,17,29.704435,-95.382455
2414 W FRANK AVE,LUFKIN,TX,75904,15,31.33245,-94.764862
2416 ELIZABETH LN,SEAGOVILLE,TX,75159,13,32.661011,-96.574965
2416 NW 18TH ST,FORT WORTH,TX,76106,10,32.78874,-97.381336
2428 BAHAMA DR,DALLAS,TX,75211,9,32.754254,-96.860055
2430 MARKET PLACE DRIVE,WACO,TX,76711,10,31.502181,-97.158066
2443 W 16TH ST,ODESSA,TX,79763,19,31.84799,-102.401981
245 STATE HWY #153 WEST,COLEMAN,TX,76834,19,31.827618,-99.447875
2450 BICKERS ST,DALLAS,TX,75212,19,32.786325,-96.861454
2450 E FIFTH ST,TYLER,TX,75701,27,32.332463,-95.268382
246 HALEY DR,CENTER,TX,75935,2,31.772762,-94.172206
2460 MARSH LN,PLANO,TX,75093,4,33.034094,-96.849763
2468 FM 1101,NEW BRAUNFELS,TX,78130,28,29.720783,-98.063833
248 WISTERIA LANE,EL CAMPO,TX,77437,20,29.148423,-96.348318
2485 S MAJOR DR,BEAUMONT,TX,77707,33,30.051161,-94.189056
250 SCHOOL STREET,TOMBALL,TX,77375,24,30.083332,-95.619993
250 W BRITISH FLYING SCHOOL BLVD,TERRELL,TX,75160,14,32.758408,-96.301323
2500 BARTON CREEK BLVD,AUSTIN,TX,78735,3,30.28956,-97.868023
2500 HINKLE DR,DENTON,TX,76201,9,33.236603,-97.143041
2500 HWY 305 S,MCCAMEY,TX,79752,22,31.113466,-102.210731
2500 SONGBIRD CIR,BROWNWOOD,TX,76801,10,31.680402,-98.991801
2501 MAPLE AVE,WACO,TX,76707,6,31.556733,-97.166539
2501 MORRIS SHEPPARD DR,BROWNWOOD,TX,76801,4,31.675079,-98.991743
2501 MUSEUM WAY,FORT WORTH,TX,76107,4,32.74775,-97.353243
2501 WESTERLAND DR,HOUSTON,TX,77063,26,29.738513,-95.530347
2504 BLISS SPILLAR ROAD,MANCHACA,TX,78652,11,30.138329,-97.857231
2505 E VILLA MARIA RD,BRYAN,TX,77802,14,30.660167,-96.347696
2505 S 37TH ST,TEMPLE,TX,76504,16,31.077191,-97.369645
2510 W 24TH ST,PLAINVIEW,TX,79072,30,34.204926,-101.734734
2510 W 8TH STREET,ODESSA,TX,79763,19,31.840121,-102.399229
25150 LAKECREST MANOR DR,KATY,TX,77493,38,29.800425,-95.80032
2525 CENTERVILLE RD,DALLAS,TX,75228,18,32.843962,-96.668036
253 ENTERPRISE DR,MCKINNEY,TX,75069,16,33.162192,-96.627469
2530 CENTRAL PALM DR,RIO GRANDE CITY,TX,78582,42,26.378037,-98.853637
2530 GREENHILL RD,MOUNT PLEASANT,TX,75455,30,33.191103,-94.970802
2535 W PLEASANT RUN,LANCASTER,TX,75146,5,32.605026,-96.812276
255 N EGRET BAY BLVD,LEAGUE CITY,TX,77573,5,29.521468,-95.080811
2550 ZACATECAS DR,EAGLE PASS,TX,78852,17,28.715623,-100.478563
2590 LOOP 337 N,NEW BRAUNFELS,TX,78130,19,29.714513,-98.155382
2600 PARKVIEW DR,BEDFORD,TX,76022,17,32.830398,-97.124626
2601 NORTHWEST LOOP,STEPHENVILLE,TX,76401,6,32.217117,-98.24122
2601 W RANDOL MILL RD,ARLINGTON,TX,76012,21,32.756135,-97.144376
2606 HOSPITAL BVLD,CORPUS CHRISTI,TX,78405,2,27.779209,-97.417166
2611 W 46TH AVE,AMARILLO,TX,79110,15,35.161336,-101.864581
2613 34TH ST,LUBBOCK,TX,79410,16,33.563098,-101.873977
2617 ANTILLEY ROAD,ABILENE,TX,79606,4,32.372427,-99.752767
2620 COMMUNICATIONS PKWY,PLANO,TX,75093,22,33.03622,-96.831885
2620 W WALKER,LEAGUE CITY,TX,77573,8,29.478278,-95.096469
2625 BELT LINE ROAD,GARLAND,TX,75044,13,32.945806,-96.667083
2628 MILAM,HUNTSVILLE,TX,77340,26,30.702579,-95.541003
2645 W RANDOL MILL RD,ARLINGTON,TX,76012,23,32.756998,-97.146388
2650 ELKTON TRAIL,TYLER,TX,75703,32,32.235066,-95.321028
2660 BRICKYARD RD,BEAUMONT,TX,77703,19,30.104477,-94.127087
2700 MEMORIAL PARK DR,BROWNWOOD,TX,76801,7,31.678455,-98.989508
2700 S HENDERSON BLVD,KILGORE,TX,75662,13,32.362644,-94.86886
2701 HOSPITAL DR,VICTORIA,TX,77901,7,28.8136,-96.976804
2711 PINE TREE RD,LONGVIEW,TX,75604,20,32.535418,-94.808581
2712 N HURSTVIEW,HURST,TX,76054,11,32.865496,-97.177551
2713 S COMMERCIAL AVE,COLEMAN,TX,76834,20,31.804313,-99.423006
2722 OLD ANSON RD,ABILENE,TX,79603,30,32.484312,-99.746198
2729 PORTER AVE,EL PASO,TX,79930,36,31.805187,-106.463273
2735 AIRLINE RD,CORPUS CHRISTI,TX,78414,45,27.678911,-97.364237
2736 FARM TO MARKET 775,LA VERNIA,TX,78121,19,29.34551,-98.087356
2739 BABCOCK,SAN ANTONIO,TX,78229,26,29.511134,-98.590595
2750 MILLER RANCH RD,PEARLAND,TX,77584,7,29.560115,-95.374625
27840 JOHNSON ROAD,TOMBALL,TX,77375,18,30.078198,-95.624919
280 MOFFITT DR,CENTER,TX,75935,31,31.810534,-94.196307
2800 MIDLAND DR,MIDLAND,TX,79707,35,32.011008,-102.138963
2806 REAL ST,AUSTIN,TX,78722,12,30.282952,-97.711921
2808 STONEYBROOK DRIVE,HOUSTON,TX,77063,42,29.735976,-95.505531
2815 MARTIN LUTHER KING JR BLVD,DALLAS,TX,75215,17,32.76979,-96.768288
2817 KENT STREET,BRYAN,TX,77802,9,30.661252,-96.322612
2875 SHILOH ROAD,TYLER,TX,75703,31,32.295146,-95.264312
2885 STILLHOUSE ROAD,PARIS,TX,75460,33,33.692455,-95.540312
2900 STILLHOUSE ROAD,PARIS,TX,75462,26,33.69175,-95.537328
2901 STERLING HART DR,COMMERCE,TX,75428,9,33.230881,-95.894836
2918 DUNCANVILLE RD,DALLAS,TX,75211,10,32.713217,-96.908057
2929 POST OAK BLVD,HOUSTON,TX,77056,14,29.736907,-95.459949
2930 CYPRESS GROVE MEADOWS,HOUSTON,TX,77014,21,29.722638,-95.280738
2936 MARKUM DR,FORT WORTH,TX,76117,15,32.799,-97.268994
2939 WOODLAND PARK DR,HOUSTON,TX,77082,36,29.731255,-95.579052
2951 HWY 281,GEORGE WEST,TX,78022,32,28.336538,-98.122708
300 CHERRY ST,CHANDLER,TX,75758,12,32.204523,-95.502844
300 CROWNE POINT BLVD,WILLOW PARK,TX,76087,18,32.749032,-97.66295
300 E BAKER ST,CLARKSVILLE,TX,75426,19,33.60292,-95.046158
300 HAPPY LN,HILLSBORO,TX,76645,7,32.012438,-97.098214
300 HYDE ST,CORRIGAN,TX,75939,26,31.000684,-94.825518
300 LOOP 11,WICHITA FALLS,TX,76306,3,33.918337,-98.539111
300 N NEBRASKA,SAN JUAN,TX,78589,65,26.192242,-98.154863
300 NORTH ST,COLUMBUS,TX,78934,38,29.716341,-96.538688
300 S JACKSON ST,BRECKENRIDGE,TX,76424,5,32.753214,-98.882281
300 S. HIGHWAY 36 BYPASS,GATESVILLE,TX,76528,4,31.430702,-97.7165
300 SALMON,STOCKDALE,TX,78160,21,29.231369,-97.959562
300 WEST HIGHWAY 6,WACO,TX,76712,22,31.513876,-97.194866
3000 CARDINAL DR,ORANGE,TX,77630,22,30.098457,-93.763824
3000 MOCKINGBIRD LN,MIDLAND,TX,79705,19,32.048824,-102.130742
3000 N DANVILLE ST,WILLIS,TX,77378,21,30.434332,-95.485154
3001 S HOUSTON ST,KAUFMAN,TX,75142,12,32.572722,-96.313943
3001 W FOURTH AVE,CORSICANA,TX,75110,3,32.07937,-96.49628
3001 WESTWARD DR,NACOGDOCHES,TX,75964,14,31.65235,-94.684587
3002  AVE  Q,HONDO,TX,78861,36,29.33642,-99.146725
3002 W 2ND AVE,CORSICANA,TX,75110,5,32.082695,-96.498629
3006 MCNIEL,WICHITA FALLS,TX,76309,3,33.88231,-98.549426
301 E YUMA AVE,MCALLEN,TX,78503,45,26.179126,-98.219352
301 HOLLYBROOK DR,LONGVIEW,TX,75605,29,32.532988,-94.740053
301 HUGULEY BLVD,BURLESON,TX,76028,17,32.583479,-97.315677
301 LINCOLN PARK DR,CLEBURNE,TX,76033,6,32.343711,-97.41158
301 N MILLER RD,MANSFIELD,TX,76063,13,32.567419,-97.092
301 S PARK ST,GRANBURY,TX,76048,21,32.441166,-97.799044
301 W CRINER ST,GRANDVIEW,TX,76050,4,32.270876,-97.185111
301 W MARTIN ST,DEL RIO,TX,78840,25,29.359297,-100.904701
301 W RANDOL MILL RD,ARLINGTON,TX,76011,25,32.750682,-97.109374
301 WEST PARK DRIVE,LIVINGSTON,TX,77351,4,30.730846,-94.942994
3010 BAMORE RD,ROSENBERG,TX,77471,25,29.536875,-95.820178
3011 W ADAMS AVE,TEMPLE,TX,76504,37,31.105964,-97.373949
303 HOLLOW TREE LANE,HOUSTON,TX,77090,26,30.02502,-95.437755
3030  S  ROOSEVELT AVE,SAN ANTONIO,TX,78214,16,29.36784,-98.480308
3030 FIG ST,CORPUS CHRISTI,TX,78404,42,27.763124,-97.412582
3033 W GREEN OAKS BLVD,ARLINGTON,TX,76016,16,32.695613,-97.189152
305 BONITA ST,JACKSONVILLE,TX,75766,14,31.94841,-95.275605
305 FIFTH ST,FARWELL,TX,79325,18,34.385617,-103.037026
305 S PALESTINE ST,ATHENS,TX,75751,45,32.199983,-95.853695
3050 SUNNYBROOK RD,CORPUS CHRISTI,TX,78415,48,27.736028,-97.410607
306 CAROLYN  RD,NOCONA,TX,76255,8,33.779873,-97.730249
307 W CYPRESS ST,SAN ANTONIO,TX,78212,29,29.441378,-98.49736
307 WEST 8TH ST,ROBERT LEE,TX,76945,12,31.895756,-100.489493
309 FIFTH ST,STERLING CITY,TX,76951,12,31.837086,-100.982397
310 AMERICA DRIVE,BROWNSVILLE,TX,78526,60,25.971728,-97.469871
310 E LAWRENCE ST,DAYTON,TX,77535,30,30.060248,-94.892893
310 S JUPITER,ALLEN,TX,75002,5,33.097485,-96.660467
3100 S RIGSBEE RD,PLANO,TX,75074,11,33.014472,-96.673316
3101 S. MAIN ST,PERRYTON,TX,79070,16,36.369188,-100.801884
3103 E AIRLINE DR,VICTORIA,TX,77901,36,28.82276,-96.972588
3106 BOB ROGERS DR,EAGLE PASS,TX,78852,34,28.710673,-100.458012
3109 KINGS CT,FORT WORTH,TX,76118,10,32.806986,-97.235835
311 W NOTTINGHAM,SAN ANTONIO,TX,78209,22,29.500935,-98.472308
3130 S BRAHMA BLVD,KINGSVILLE,TX,78363,53,27.487741,-97.855584
314 E CAROLINE ST,TRINITY,TX,75862,14,30.949277,-95.362178
315 E 19TH,DUMAS,TX,79029,8,35.843454,-101.969684
315 W ANDERSON ST,WEATHERFORD,TX,76086,3,32.746812,-97.801307
315 W GIBSON,JASPER,TX,75951,17,30.907883,-94.00414
316 GENERAL CAVAZOS BLVD,KINGSVILLE,TX,78363,83,27.491322,-97.865626
316 SW 25TH AVE,MINERAL WELLS,TX,76067,20,32.800015,-98.147324
3160 GUS THOMASSON ROAD,MESQUITE,TX,75150,11,32.807373,-96.632853
317 N CARANCAHUA,CORPUS CHRISTI,TX,78401,29,27.792949,-97.397415
318 CHAMBERS ST,MARLIN,TX,76661,2,31.30854,-96.89326
320 GREENVILLE HIGHWAY,MINEOLA,TX,75773,14,32.677609,-95.487096
320 LORENALY DR,BROWNSVILLE,TX,78520,43,25.973265,-97.510964
3200 PARKWAY,BIG SPRING,TX,79720,12,32.278703,-101.457761
3200 W. SLAUGHTER LANE,AUSTIN,TX,78748,14,30.180783,-97.842181
3201 N FOURTH ST,LONGVIEW,TX,75605,56,32.541019,-94.73113
3201 N WARE RD,MCALLEN,TX,78501,84,26.23675,-98.257594
3202 S WILLIS ST,ABILENE,TX,79605,11,32.411211,-99.765803
3203 SAGE ST,MIDLAND,TX,79705,52,32.030843,-102.073681
3208 THUNDERBIRD LN,PLANO,TX,75075,6,33.039701,-96.709518
321 KILGORE DRIVE,HENDERSON,TX,75652,17,32.173349,-94.789928
321 N SHILOH RD,GARLAND,TX,75042,14,32.914745,-96.667637
3210 W HWY 22,CORSICANA,TX,75110,12,32.085664,-96.503727
3219 EAST GRANDE BOULEVARD,TYLER,TX,75707,8,32.38247,-95.31072
329 SCHOOL DR,POTEET,TX,78065,22,29.045403,-98.581194
330 E BAGLEY RD,RUSK,TX,75785,43,31.813538,-95.129845
330 W CAMP WISDOM RD,DUNCANVILLE,TX,75116,14,32.660942,-96.913196
3300 W 2ND AVE,CORSICANA,TX,75110,5,32.080925,-96.502384
3301 E. MOCKINGBIRD LANE,VICTORIA,TX,77904,35,28.846407,-96.978083
3301 FM 3009,SCHERTZ,TX,78154,59,29.58399,-98.267774
3301 PARK ROW BLVD,CORSICANA,TX,75110,17,32.071562,-96.496941
3301 VIEW ST,FORT WORTH,TX,76103,32,32.746057,-97.277914
3315 CROSS TIMBERS RD,FLOWER MOUND,TX,75028,12,33.039944,-97.080503
3325 WEST PLANO PARKWAY,PLANO,TX,75075,5,33.011124,-96.755871
3326 BURGOYNE,DALLAS,TX,75233,51,32.71005,-96.875469
333 MATLAGE WAY,SUGAR LAND,TX,77478,31,29.616298,-95.636357
333 NORTH FM 95,GARRISON,TX,75946,9,31.827233,-94.499994
3333 BOB ROGERS DR,EAGLE PASS,TX,78852,13,28.713177,-100.460078
3350 BONNIE VIEW ROAD,DALLAS,TX,75216,46,32.718656,-96.776281
3400 E WALNUT,PEARLAND,TX,77581,8,29.559401,-95.278005
3401 E AIRLINE DR,VICTORIA,TX,77901,19,28.821749,-96.983777
3403 S VINE AVE,TYLER,TX,75701,39,32.370177,-95.341824
3406 BUSINESS CENTER DRIVE,PEARLAND,TX,77584,3,29.546794,-95.391215
3421 JOE BATTLE BOULEVARD,EL PASO,TX,79936,20,31.794231,-106.269164
3428 MOULTON RD,GONZALES,TX,78629,32,29.543029,-97.543969
3434 WATTERS RD,PASADENA,TX,77504,16,29.660659,-95.180541
3443 N MACARTHUR BLVD,IRVING,TX,75062,10,32.851766,-96.96044
345 COUNTRY CLUB DR,CALDWELL,TX,77836,29,30.542974,-96.711047
3500 PARK ST,GREENVILLE,TX,75401,20,33.131191,-96.116574
3505  S BUCKNER BLVD BLDG 3,DALLAS,TX,75227,27,32.765619,-96.686543
3505 OLD JACKSONVILLE RD,TYLER,TX,75701,31,32.309587,-95.320261
3505 S BUCKNER BLVD BLDG 2,DALLAS,TX,75227,17,32.765619,-96.686543
3505 S BUCKNER BLVD BLDG 4,DALLAS,TX,75227,10,32.765619,-96.686543
3505 S BUCKNER BLVD BLDG 5,DALLAS,TX,75227,7,32.765619,-96.686543
3509 ROGGE LN,AUSTIN,TX,78723,25,30.300737,-97.674303
3511 CORINTH PARKWAY,CORINTH,TX,76208,27,33.153939,-97.055625
3515 S PARK AVE,DENISON,TX,75020,16,33.722167,-96.569898
3526 W ERWIN ST,TYLER,TX,75702,23,32.353127,-95.343493
355 FM 83 W,HEMPHILL,TX,75948,37,31.328914,-93.868239
3550 N SHILOH RD,RICHARDSON,TX,75082,21,32.999204,-96.664005
3600 ANGLE AVE,FORT WORTH,TX,76106,38,32.809361,-97.368742
3617 O'HARE DR,MESQUITE,TX,75150,6,32.814082,-96.602371
3625 GREEN CREST,HOUSTON,TX,77082,45,29.716873,-95.653192
3640 HAMPTON DR,MISSOURI CITY,TX,77459,40,29.568321,-95.562061
3650 S IH 35 E,WAXAHACHIE,TX,75165,15,32.368546,-96.860361
369 MARS DR,COTULLA,TX,78014,21,28.445533,-99.240147
3701 WASSON RD,BIG SPRING,TX,79720,22,32.212424,-101.49201
3702 COVE VIEW BLVD,GALVESTON,TX,77554,22,29.250952,-94.870771
3710 4TH ST,LUBBOCK,TX,79415,15,33.592704,-101.893918
3727 W RANCH RD 1431,KINGSLAND,TX,78639,29,30.675744,-98.457865
3729 IRA E WOODS AVENUE,GRAPEVINE,TX,76051,7,32.913288,-97.128312
3730 W. OREM DRIVE,HOUSTON,TX,77045,24,29.629175,-95.433539
3737 N GARLAND AVENUE,GARLAND,TX,75044,9,32.950839,-96.653413
3745 SUMMER CREST DR,SAN ANGELO,TX,76901,14,31.42546,-100.517857
3800 ENGLEWOOD LN,ODESSA,TX,79762,15,31.889038,-102.347012
3800 MARINA DR,LAKE WORTH,TX,76135,13,32.812256,-97.449086
3800 W PARK BLVD,PLANO,TX,75075,12,33.026032,-96.76624
3801 CIMARRON,CORPUS CHRISTI,TX,78414,57,27.664024,-97.378735
3808 S CENTRAL EXPWY,DALLAS,TX,75215,26,32.756692,-96.766674
3810 HALE ST,HARLINGEN,TX,78550,49,26.169467,-97.684752
3825 VILLAGE CREEK RD,FORT WORTH,TX,76119,14,32.707127,-97.247777
3830 MUSTANG ROAD,ALVIN,TX,77511,11,29.388774,-95.236423
3838 E SOUTHCROSS BLVD,SAN ANTONIO,TX,78222,53,29.373382,-98.420846
384 HARMONY HILLS,SPRING BRANCH,TX,78070,25,29.807851,-98.422547
3840 POINTE PARKWAY,BEAUMONT,TX,77706,24,30.117035,-94.184226
3901 MONTECITO DR,DENTON,TX,76210,18,33.15784,-97.114724
3921 N MAIN,BAYTOWN,TX,77521,42,29.76552,-94.964802
3922 W RIVER DR,CORPUS CHRISTI,TX,78410,19,27.856879,-97.662637
3935 MEDICAL DR,SAN ANTONIO,TX,78229,20,29.520855,-98.560468
400 E SAYLES ST,BRENHAM,TX,77833,7,30.179063,-96.398103
400 OLD AUSTIN HWY,BASTROP,TX,78602,28,30.108705,-97.330115
400 OLD SIDNEY RD,COMANCHE,TX,76442,36,31.900545,-98.619057
400 RANGER DR,HEREFORD,TX,79045,15,34.831117,-102.409134
400 S PETE DIAZ JR AVE,RIO GRANDE CITY,TX,78582,31,26.365956,-98.802028
400 W 14TH ST BLDG A,AMARILLO,TX,79101,8,35.199559,-101.84172
4001 HWY 59 NORTH,LIVINGSTON,TX,77351,25,30.754728,-94.912937
4006 VISTA RD,PASADENA,TX,77504,58,29.656865,-95.183219
401 EAST BLUE BELL ROAD,BRENHAM,TX,77833,24,30.177675,-96.398609
401 N MAIN ST,LOCKNEY,TX,79241,44,34.12787,-101.441884
401 OAKWOOD BLVD,ROUND ROCK,TX,78681,14,30.511411,-97.71146
401 OWEN LN,WACO,TX,76710,10,31.517569,-97.192798
401 S E STALLINGS DR,NACOGDOCHES,TX,75964,21,31.577487,-94.668233
401 SWIFT ST,REFUGIO,TX,78377,12,28.31016,-97.278801
401 W ARBROOK BLVD,ARLINGTON,TX,76014,14,32.685406,-97.111125
4011 WILLIAMS DR,GEORGETOWN,TX,78628,21,30.675658,-97.703465
4033 W 51ST AVE,AMARILLO,TX,79109,25,35.154794,-101.88232
404 GOODWIN ST,PLEASANTON,TX,78064,17,28.959012,-98.487652
4048 RED BLUFF ROAD,PASADENA,TX,77503,19,29.678952,-95.149264
405 DUNCAN PERRY RD,ARLINGTON,TX,76011,6,32.746029,-97.041226
405 S COLLINS ST,CLAUDE,TX,79019,20,35.105259,-101.357419
405 SHADY ACRES LANE,NEWTON,TX,75966,43,30.845258,-93.746514
4054 NORTHWEST LOOP,CARTHAGE,TX,75633,32,32.149074,-94.366993
406 E SEVENTH ST,BURKBURNETT,TX,76354,7,34.101807,-98.572715
406 SHARMAIN PL,SAN ANTONIO,TX,78221,39,29.35335,-98.509434
407 N COLLEGE ST,ROSEBUD,TX,76570,27,31.078997,-96.973702
409 S FILES ST,ITASCA,TX,76055,12,32.158857,-97.143124
409 W GREEN,WEBSTER,TX,77598,15,29.531879,-95.11851
4100 COLLEGE PARK DR,ROUND ROCK,TX,78665,5,30.559359,-97.653846
4100 MOORES LN,TEXARKANA,TX,75503,23,33.474066,-94.095348
4101 LONG PRAIRIE ROAD,FLOWER MOUND,TX,75028,6,33.041734,-97.070087
4105 TERAVISTA CLUB DRIVE,ROUND ROCK,TX,78665,6,30.568944,-97.669578
4109 ALLENBROOK DR,BAYTOWN,TX,77521,43,29.767079,-94.972649
411 AIRPORT RD,SULPHUR SPRINGS,TX,75482,46,33.157299,-95.605268
411 ALABAMA AVE,LEAGUE CITY,TX,77573,15,29.521115,-95.083286
411 E COLLARD,MADISONVILLE,TX,77864,22,30.954294,-95.9121
411 S MILLER,RISING STAR,TX,76471,5,32.091054,-98.965258
411 SPRING CREEK RD,GRAND SALINE,TX,75140,15,32.677581,-95.704717
412 N DALTON,BARTLETT,TX,76511,11,30.79807,-97.424077
4120 22ND PL,LUBBOCK,TX,79410,29,33.574828,-101.902321
413 E MANSFIELD CARDINAL,KENNEDALE,TX,76060,10,32.645487,-97.216883
413 GARLAND DR,LAKE JACKSON,TX,77566,63,29.014645,-95.422693
414 JOHNSON DR,MC GREGOR,TX,76657,11,31.431937,-97.417956
4141 S BRAESWOOD BLVD,HOUSTON,TX,77025,19,29.686728,-95.444181
415 INDIAN OAKS DR,HARKER HEIGHTS,TX,76548,11,31.075271,-97.659722
4150 COLLEGE ST,BEAUMONT,TX,77707,18,30.069187,-94.138027
4162 WILDCAT DR,CORPUS CHRISTI,TX,78410,37,27.860814,-97.633441
419 S COCKRELL HILL RD,DUNCANVILLE,TX,75116,13,32.648814,-96.892693
4195 MILAM ST,BEAUMONT,TX,77707,37,30.064925,-94.138865
420 LANTERN BEND DR,HOUSTON,TX,77090,20,30.024074,-95.437084
420 MOODY ST,FAIRFIELD,TX,75840,14,31.732185,-96.165936
4200 JACKSON AVE,AUSTIN,TX,78731,3,30.315339,-97.755263
4200 LIVE OAK ST,DALLAS,TX,75204,28,32.796699,-96.778534
4200 SHEPHERD LN,BALCH SPRINGS,TX,75180,10,32.712131,-96.61361
4201 FM 105,ORANGE,TX,77630,33,30.082845,-93.786531
4201 STONEGATE BLVD,FORT WORTH,TX,76109,12,32.711526,-97.384166
421 S BONNER,JACKSONVILLE,TX,75766,15,31.960071,-95.273674
421 WEST F ST,MUNDAY,TX,76371,9,33.452901,-99.626856
422 E 18TH ST,WESLACO,TX,78596,56,26.14078,-97.986904
4220 WELLS DR,LAKE WORTH,TX,76135,26,32.81706,-97.447174
424 N TARPEY RD,TEXAS CITY,TX,77591,43,29.387077,-95.004701
424 S ADAMS ST,FORT WORTH,TX,76104,22,32.740454,-97.336626
4240 GOLDEN TRIANGLE BOULEVARD,KELLER,TX,76244,9,32.930103,-97.292256
425 SW AVE F,HAMLIN,TX,79520,20,32.879047,-100.132302
4252 BRYANT IRVIN RD,FORT WORTH,TX,76109,9,32.691531,-97.412517
430 OLD AUSTIN HWY,BASTROP,TX,78602,15,30.108842,-97.331107
4300 VISTA RD,PASADENA,TX,77504,15,29.657774,-95.177433
4301 HOSPITAL DR,VERNON,TX,76384,13,34.157408,-99.315604
4301 S EXPRESSWAY 83,HARLINGEN,TX,78550,33,26.255523,-97.667502
4302 E SOUTHCROSS BLVD,SAN ANTONIO,TX,78222,26,29.374329,-98.41015
4306 24TH ST,LUBBOCK,TX,79410,45,33.572748,-101.903661
431 N W 3RD ST,PREMONT,TX,78375,30,27.363308,-98.130055
4312 S 31ST ST,TEMPLE,TX,76502,8,31.057418,-97.375606
4315 HOPKINS AVE,DALLAS,TX,75209,10,32.848269,-96.836866
4320 W 19TH ST,LUBBOCK,TX,79407,43,33.577935,-101.903594
434 PAZA DR,MESQUITE,TX,75149,15,32.754125,-96.592874
4343 OAK GROVE BLVD,SAN ANGELO,TX,76904,18,31.424192,-100.500751
438 HOUSTON-HARTE,SAN ANGELO,TX,76903,10,31.455915,-100.475144
440 E RUBEN TORRES BLVD,BROWNSVILLE,TX,78520,53,25.945166,-97.525739
4400 GULF ST,GROVES,TX,77619,19,29.945845,-93.924681
4400 WALNUT ST,GREENVILLE,TX,75401,15,33.125298,-96.121589
4401 COLLEGE DR,VERNON,TX,76384,8,34.159925,-99.316086
4401 SPICEWOOD SPRINGS RD,AUSTIN,TX,78759,12,30.372155,-97.758891
4403 74TH ST,LUBBOCK,TX,79424,32,33.526663,-101.906253
4422 RIVERSTONE BLVD,MISSOURI CITY,TX,77459,63,29.567158,-95.571399
4501 DUDMAR DR,AUSTIN,TX,78735,16,30.235695,-97.804779
4501 PLANO PARKWAY,CARROLLTON,TX,75010,31,33.039501,-96.868032
4501 TRADITION TRAIL,PLANO,TX,75093,3,33.013857,-96.784387
4503 S SUGAR RD,EDINBURG,TX,78539,41,26.282933,-98.181793
451 S EL CAMINO CROSSING,SAN AUGUSTINE,TX,75972,14,31.528572,-94.125332
4510 27TH ST,LUBBOCK,TX,79410,40,33.570028,-101.908699
4511 CORONADO AVE,WICHITA FALLS,TX,76310,18,33.869639,-98.561189
4515 VILLAGE CREEK RD,FORT WORTH,TX,76119,13,32.698232,-97.247838
4521 AVE F,BAY CITY,TX,77414,17,28.86362,-95.917347
457 N MAIN ST,LA GRANGE,TX,78945,20,29.907474,-96.881718
46 MAY STREET,WELLS,TX,75976,26,31.491741,-94.942515
460 W MAIN ST,RANGER,TX,76470,11,32.472286,-98.684237
4600 HERITAGE TRACE PARKWAY,FORT WORTH,TX,76244,18,32.91327,-97.285989
4616 NE STALLINGS DR,NACOGDOCHES,TX,75965,24,31.654021,-94.648115
4620 BELLAIRE BLVD,BELLAIRE,TX,77401,16,29.707387,-95.458038
4650 S PANTHER CREEK DR,THE WOODLANDS,TX,77381,24,30.163955,-95.504396
470 MOORE DR,VIDOR,TX,77662,28,30.135875,-94.012338
4710 LEXINGTON BLVD,MISSOURI CITY,TX,77459,55,29.601826,-95.580517
4710 SLIDE RD,LUBBOCK,TX,79414,36,33.550659,-101.922786
4713 BUSINESS 181 N,BEEVILLE,TX,78102,21,28.488192,-97.730956
4718 HALLMARK DR,HOUSTON,TX,77056,19,29.751017,-95.458618
4800 WHITE SETTLEMENT RD,FORT WORTH,TX,76114,11,32.760642,-97.393005
4810 KEMP BLVD,WICHITA FALLS,TX,76308,10,33.854804,-98.536237
4825 WELLESLEY ST,FORT WORTH,TX,76107,30,32.724853,-97.391891
4829 W LAWTHER DR,DALLAS,TX,75214,3,32.852957,-96.731175
4900 EAST SAM HOUSTON PARKWAY SOUTH,PASADENA,TX,77505,25,29.63802,-95.164154
4905 FLEMING STREET,LA MARQUE,TX,77568,5,29.377184,-95.012112
4910 EMORY,LUBBOCK,TX,79416,23,33.605267,-101.918085
4910 WELLINGTON ST,GREENVILLE,TX,75402,14,33.12223,-96.126947
4920 ELIZABETH ST,TEXARKANA,TX,75503,31,33.466443,-94.048869
4925 ELIZABETH ST,TEXARKANA,TX,75503,20,33.467515,-94.050258
4934 S 7TH ST,ABILENE,TX,79605,15,32.443995,-99.785401
4949 RAVENSWOOD DR,SAN ANTONIO,TX,78227,18,29.381683,-98.64536
50 BRIGGS ST,SAN ANTONIO,TX,78224,68,29.354411,-98.548129
500 VALLE VISTA DR,ATHENS,TX,75751,9,32.196988,-95.86456
5000 FAWN MEADOW,SAN ANTONIO,TX,78240,17,29.529651,-98.585373
5000 THAYER DR,KILLEEN,TX,76549,4,31.08901,-97.803533
5001 OFFICE PARK DRIVE,ODESSA,TX,79762,30,31.899914,-102.338959
501 COTTAGE RD,CARTHAGE,TX,75633,18,32.167479,-94.346928
501 N MAIN ST,COLLINSVILLE,TX,76233,18,33.56467,-96.910836
501 N MEDFORD DR,LUFKIN,TX,75901,11,31.340742,-94.691354
501 N SYCAMORE,FORT STOCKTON,TX,79735,49,30.889902,-102.909587
501 OGDEN,SAN ANTONIO,TX,78212,47,29.443099,-98.493373
501 TIMPSON,CENTER,TX,75935,20,31.799144,-94.189551
501 W AUSTIN ST,LULING,TX,78648,31,29.687473,-97.665134
501 YATES ST,MOUNT VERNON,TX,75457,75,33.184159,-95.229297
502 EAST COKE RD,WINNSBORO,TX,75494,13,32.948117,-95.28609
5020 SPACE CENTER BLVD,PASADENA,TX,77505,29,29.635478,-95.143977
5027 PECAN GROVE,SAN ANTONIO,TX,78222,47,29.375364,-98.420832
503 MEADOW DRIVE,WEST,TX,76691,5,31.81646,-97.095441
503 OLD AUSTIN HIGHWAY,BASTROP,TX,78602,19,30.111621,-97.333727
504 N JOHN REDDITT DR,LUFKIN,TX,75904,75,31.336661,-94.761191
505 MADISON OAK DR,SAN ANTONIO,TX,78258,38,29.621996,-98.489366
505 W CENTERVILLE RD,GARLAND,TX,75041,21,32.866579,-96.636675
506 S 7TH ST,CARRIZO SPRINGS,TX,78834,16,28.518276,-99.863787
506 VAN NESS,WINTERS,TX,79567,28,31.959317,-99.958377
507 E W M WATSON BLVD,DAINGERFIELD,TX,75638,28,33.028305,-94.713628
507 MARTIN LUTHER KING BLVD,LUBBOCK,TX,79403,16,33.590041,-101.818172
507 W JACKSON ST,BURNET,TX,78611,7,30.75616,-98.233105
507 WEST AVE,SCHULENBURG,TX,78956,58,29.682235,-96.911147
508 PIERCE ST,LINDALE,TX,75771,40,32.510657,-95.40334
510 PAREDES LINE RD,BROWNSVILLE,TX,78521,40,25.930059,-97.488595
510 S FIRST ST,BROWNFIELD,TX,79316,31,33.174578,-102.274854
5100 JOHN D RYAN BLVD,SAN ANTONIO,TX,78245,7,29.382689,-98.73626
5101 MEDICAL DR,SAN ANTONIO,TX,78229,7,29.513342,-98.586693
511 S BAILEY ST,ELECTRA,TX,76360,17,34.028222,-98.925224
512 DRAPER DR,TEMPLE,TX,76504,24,31.10986,-97.369485
515 W ASHBY PL,SAN ANTONIO,TX,78212,57,29.449414,-98.498834
519 NINTH AVE N,TEXAS CITY,TX,77590,47,29.392921,-94.901582
520 BRADBURN RD,GRAND SALINE,TX,75140,13,32.678913,-95.701046
520 SE 8TH ST,PARIS,TX,75460,32,33.65661,-95.549068
5201 S WILLOW DR,HOUSTON,TX,77035,59,29.655097,-95.46993
521 S HEATHERWILDE BLVD,PFLUGERVILLE,TX,78660,16,30.443063,-97.642464
521 W 7TH ST,WEATHERFORD,TX,76086,32,32.777862,-97.806371
5215 S SUGAR RD,EDINBURG,TX,78539,26,26.25357,-98.18724
524 VILLAGE RD,PORT LAVACA,TX,77979,36,28.639564,-96.635367
5242 MEDICAL DRIVE,ROCKWALL,TX,75032,13,32.879287,-96.46003
5300 ALTA MESA BLVD,FORT WORTH,TX,76133,34,32.643884,-97.404575
5301 BRYANT IRVIN RD,FORT WORTH,TX,76132,17,32.668991,-97.417472
5301 UNIVERSITY AVE,LUBBOCK,TX,79413,41,33.545611,-101.869979
5301 W DUVAL RD,AUSTIN,TX,78727,24,30.417843,-97.74332
5311 BIG SPRING HWY,SNYDER,TX,79549,17,32.688939,-100.920614
535  N  PARK  ST,UVALDE,TX,78801,17,29.215438,-99.794499
535 S AUSTIN ROAD,EAGLE LAKE,TX,77434,21,29.589002,-96.345748
540 HWY 29 E,BERTRAM,TX,78605,4,30.713241,-98.035959
5423 HAMILTON WOLFE RD,SAN ANTONIO,TX,78240,18,29.516559,-98.59326
5437 EISENHAUER RD,SAN ANTONIO,TX,78218,51,29.502339,-98.374476
5455 KNICKERBOCKER RD,SAN ANGELO,TX,76904,35,31.401425,-100.480745
550 E ANN ARBOR AVE,DALLAS,TX,75216,7,32.689462,-96.816986
5500 SW 9TH AVE,AMARILLO,TX,79106,16,35.206138,-101.89842
5502 W 4TH ST,LUBBOCK,TX,79416,26,33.593647,-101.931698
5505 NEW COPELAND RD,TYLER,TX,75703,18,32.288876,-95.289605
5515 GLEN LAKES DR,DALLAS,TX,75231,15,32.884034,-96.764183
5524 COWHORN CREEK,TEXARKANA,TX,75503,37,33.471558,-94.077633
555 RANCH RD 3237,WIMBERLEY,TX,78676,29,29.999672,-98.085729
5550 HARVEST HILL RD,DALLAS,TX,75230,17,32.921437,-96.813917
5600 CHENEVERT STREET,HOUSTON,TX,77004,25,29.72141,-95.383326
5600 DAVIS BLVD,NORTH RICHLAND HILLS,TX,76180,19,32.84958,-97.212425
5600 WOODLANDS TRAIL,DENISON,TX,75020,20,33.705883,-96.57982
5601 PLUM CREEK DR,AMARILLO,TX,79124,41,35.21873,-101.902238
5607 EVERHART RD,CORPUS CHRISTI,TX,78411,39,27.70687,-97.389379
561 E RIDGECREST RD,FORNEY,TX,75126,8,32.753119,-96.446315
5665 CREEKSIDE FOREST DRIVE,THE WOODLANDS,TX,77389,35,30.140688,-95.508414
5700 E CENTRAL TEXAS EXPWY,KILLEEN,TX,76543,12,31.074632,-97.686984
5756 N KNOLL DR,SAN ANTONIO,TX,78240,54,29.512973,-98.602741
5757 N KNOLL,SAN ANTONIO,TX,78240,38,29.514038,-98.60178
5800 W BAKER RD,BAYTOWN,TX,77520,22,29.768584,-95.031023
5801 BRYANT IRVIN RD,FORT WORTH,TX,76132,30,32.664066,-97.420205
5801 CROSSLAKE PARKWAY,WOODWAY,TX,76712,6,31.490486,-97.160608
5819 PECAN VALLEY DR,SAN ANTONIO,TX,78223,20,29.368444,-98.437209
5857 TIMBERGATE DR,CORPUS CHRISTI,TX,78414,9,27.675294,-97.379416
5915 ELYSIAN FIELDS ROAD,MARSHALL,TX,75672,22,32.5041,-94.309683
600 BACON ST,MADISONVILLE,TX,77864,39,30.946358,-95.906921
600 MAPLE ST,BURLESON,TX,76028,2,32.533745,-97.332477
600 N CYNTHIA ST,MCALLEN,TX,78501,22,26.207536,-98.214266
600 REUNION COURT,GRANBURY,TX,76048,11,32.451924,-97.781058
600 S HILLSIDE DR,BEEVILLE,TX,78102,28,28.403454,-97.730226
600 W 52ND ST,TEXARKANA,TX,75501,30,33.469184,-94.049034
6001 GEORGE BUSH DR,KATY,TX,77493,31,29.790221,-95.827004
601 E HWY 69,DENISON,TX,75021,17,33.738812,-96.527897
601 E REUNION ST,FAIRFIELD,TX,75840,20,31.722261,-96.149902
601 MIDWESTERN PKWY,WICHITA FALLS,TX,76302,20,33.875871,-98.478445
601 N MILE 2 WEST,MERCEDES,TX,78570,22,26.150082,-97.917101
601 TERRACE LN,MEXIA,TX,76667,6,31.688204,-96.496078
602 BABCOCK RD,SAN ANTONIO,TX,78201,16,29.475804,-98.548671
603 CORINNE ST,SAN ANTONIO,TX,78218,50,29.493046,-98.426394
603 E AVE J,ROBSTOWN,TX,78380,42,27.798987,-97.660151
603 E PLANTATION RD,CLUTE,TX,77531,9,29.014253,-95.395493
603 S W 24TH ST,SAN ANTONIO,TX,78207,11,29.434767,-98.542112
604 FM 1293,KOUNTZE,TX,77625,11,30.37074,-94.323758
604 S CONROE MEDICAL DR,CONROE,TX,77304,22,30.284338,-95.47335
605 S AVE F,KNOX CITY,TX,79529,18,33.413128,-99.811765
605 W 7TH ST,POST,TX,79356,15,33.188038,-101.385258
605 W MULBERRY,DECATUR,TX,76234,16,33.239307,-97.591716
605 W SEVENTH ST,MCLEAN,TX,79057,12,35.239431,-100.603921
6050 HOSPITAL DR,ABILENE,TX,79606,7,32.375954,-99.747426
606 COYOTE TR,ALICE,TX,78332,49,27.758577,-98.051984
606 W GRUY,HEBBRONVILLE,TX,78361,18,27.318996,-98.683176
607 PARKSIDE DR,GROESBECK,TX,76642,2,31.522741,-96.523734
607 W AVE B,COPPERAS COVE,TX,76522,22,31.127352,-97.908421
609 RIO CONCHO DR,SAN ANGELO,TX,76903,16,31.4593,-100.42361
610 DESHONG DR,PARIS,TX,75460,42,33.687585,-95.551332
6101 OHIO STE 500,PLANO,TX,75024,16,33.057764,-96.792292
611 N BROAD ST,LAMPASAS,TX,76550,10,31.071264,-98.187429
611 NW STALLINGS DR,NACOGDOCHES,TX,75961,10,31.607847,-94.686213
611 ROSE MARIE BLVD,HEARNE,TX,77859,20,30.865756,-96.593478
613 EAKER ST,EDEN,TX,76837,4,31.220668,-99.847656
615 FALTIN AVE,COMFORT,TX,78013,22,29.971282,-98.907016
615 LAWRENCE ST,TOMBALL,TX,77375,36,30.0874,-95.625426
615 N WARE RD,MCALLEN,TX,78501,38,26.213605,-98.261613
6150 S LOOP EAST,HOUSTON,TX,77087,19,29.694231,-95.318334
616 W RUSSELL PL,SAN ANTONIO,TX,78212,32,29.45075,-98.499789
617 W JANISCH ST,HOUSTON,TX,77018,35,29.836873,-95.408542
619 N BRITAIN RD,IRVING,TX,75061,11,32.819469,-96.942792
6200 N BRAESWOOD,HOUSTON,TX,77074,23,29.677851,-95.502645
6211 S NEW BRAUNFELS AVE,SAN ANTONIO,TX,78223,73,29.36464,-98.459386
623 HWY 155N,GILMER,TX,75644,51,32.791087,-94.999833
6230 WARREN ST,GROVES,TX,77619,13,29.934311,-93.901552
624 N CONVERSE ST,FLATONIA,TX,78941,26,29.694034,-97.105162
625 N MAIN ST,BOERNE,TX,78006,39,29.799744,-98.732767
630 S 19TH,SLATON,TX,79364,40,33.433338,-101.655394
630 W WOODLAWN AVE,SAN ANTONIO,TX,78212,19,29.452529,-98.503832
631 LAKEVIEW BLVD,NEW BRAUNFELS,TX,78130,34,29.724488,-98.128686
632 WINDSOR WAY,VAN ALSTYNE,TX,75495,14,33.423196,-96.584295
636 CUPPLES RD,SAN ANTONIO,TX,78237,37,29.407391,-98.547371
6411 FANNIN,HOUSTON,TX,77030,1,29.714052,-95.396173
647 US HWY 190 W,WOODVILLE,TX,75979,19,30.779939,-94.400926
6500 BRUSH COUNTRY RD,AUSTIN,TX,78749,38,30.224918,-97.841781
6534 STUEBNER AIRLINE RD,HOUSTON,TX,77091,33,29.859314,-95.407878
6565 FANNIN,HOUSTON,TX,77030,7,29.709033,-95.400335
658 SW 3RD ST,GRAND PRAIRIE,TX,75051,12,32.738164,-97.005005
6600 LANDS END COURT,FORT WORTH,TX,76116,16,32.73903,-97.431112
6600 NINTH AVE,PORT ARTHUR,TX,77642,26,29.939863,-93.96537
6602 MEMORIAL DR,TEXAS CITY,TX,77590,11,29.39196,-94.985877
6621 DAN DANCIGER RD,FORT WORTH,TX,76133,16,32.649915,-97.406363
6640 IOLA AVENUE,LUBBOCK,TX,79424,13,33.531716,-101.94857
6641 W AMARILLO BLVD,AMARILLO,TX,79106,12,35.197883,-101.909707
6649 N RIVERSIDE DR,FORT WORTH,TX,76137,28,32.862933,-97.306307
6650 SOUTH SONCY ROAD,AMARILLO,TX,79119,33,35.139471,-101.939506
670 W FOURTH ST,YORKTOWN,TX,78164,13,28.978102,-97.510775
6700 HERITAGE PARKWAY,ROCKWALL,TX,75087,19,32.919542,-96.505864
6801 E RIVERSIDE DR,AUSTIN,TX,78741,34,30.22263,-97.699025
6825 HARRY HINES BLVD,DALLAS,TX,75235,17,32.82417,-96.853806
6850 RUFE SNOW DR,FORT WORTH,TX,76148,18,32.870695,-97.237102
6909 BURNET LN,AUSTIN,TX,78757,33,30.346245,-97.736336
6920 T.C. JESTER BLVD,HOUSTON,TX,77091,2,29.861744,-95.457813
696 FM 99,KARNES CITY,TX,78118,25,28.879314,-97.907911
699 CAMPUS DR,CRANE,TX,79731,42,31.393125,-102.363448
700 12TH ST,BAY CITY,TX,77414,10,28.986963,-95.980575
700 DYER ST,ROCKDALE,TX,76567,18,30.656438,-97.014137
700 E VISTA RIDGE MALL DR,LEWISVILLE,TX,75067,8,32.998014,-96.969454
700 HEARNE ST,FRANKLIN,TX,77856,8,31.027998,-96.491462
700 N HERNDON,KIRBYVILLE,TX,75956,42,30.667376,-93.905684
700 S BOWIE DR,WEATHERFORD,TX,76086,21,32.751281,-97.815048
700 S OSTROM ST,EASTLAND,TX,76448,21,32.394966,-98.828983
700 W HIGHWAY 287 S,BOWIE,TX,76230,14,33.550587,-97.861705
7001 MCPHERSON RD,LAREDO,TX,78041,35,27.572888,-99.472806
701 N SARAH DEWITT,GONZALES,TX,78629,25,29.517382,-97.456892
701 S MARKET ST,CARTHAGE,TX,75633,30,32.144527,-94.340817
701 SAINT LOUIS AVE,FORT WORTH,TX,76104,16,32.736894,-97.327791
701 W BENNETT RD,DECATUR,TX,76234,20,33.214023,-97.596211
7021 BRYANT IRVIN RD,FORT WORTH,TX,76132,14,32.648037,-97.427155
703 TITUS STREET,GILMER,TX,75644,18,32.73464,-94.944319
704 DOBKINS,DUBLIN,TX,76446,29,32.079938,-98.334606
704 N TAYLOR RD,HUGHES SPRINGS,TX,75656,40,33.005472,-94.631924
705 HWY 418 W,SILSBEE,TX,77656,20,30.358641,-94.166791
705 JACKSON ST,RICHMOND,TX,77469,25,29.580582,-95.76431
705 N MAIN ST,LUMBERTON,TX,77657,29,30.261683,-94.199958
705 NE GEORGIA AVENUE,SWEETWATER,TX,79556,18,32.462787,-100.38516
707 S ROLAND ST,SPEARMAN,TX,79081,10,36.190271,-101.199896
7080 CALDER,BEAUMONT,TX,77706,25,30.115295,-94.157916
709 W FIFTH ST,BONHAM,TX,75418,7,33.57798,-96.186365
710 HWY 359 S,BROOKSHIRE,TX,77423,44,29.771955,-95.951861
710 HWY 55,CAMP WOOD,TX,78833,30,29.669203,-100.012219
7100 MATLOCK RD,ARLINGTON,TX,76002,7,32.628771,-97.116299
7100 TRAIL LAKE DR,FORT WORTH,TX,76133,20,32.642241,-97.402303
7107 QUEENSTON BLVD,HOUSTON,TX,77095,28,29.880574,-95.66906
711 KINGS WAY,DEL RIO,TX,78840,15,29.409568,-100.914936
711 LUCAS ST,ATHENS,TX,75751,41,32.189945,-95.848167
711 WEST BROADWAY,DENVER CITY,TX,79323,23,32.964204,-102.837578
712 RAILROAD AVE,HICO,TX,76457,7,31.982602,-98.04073
714 S AUSTIN,TULIA,TX,79088,24,34.52797,-101.763623
7146 BAKER BLVD,RICHLAND HILLS,TX,76118,11,32.808024,-97.226336
716 MIMOSA STREET,MINEOLA,TX,75773,19,32.66164,-95.47893
7171 BUFFALO GAP RD,ABILENE,TX,79606,15,32.362346,-99.780332
7181 CRESTWAY DR,SAN ANTONIO,TX,78239,47,29.522312,-98.347204
721 AIRPORT DR,WESLACO,TX,78596,38,26.153714,-97.974298
721 DUNAWAY LN,AZLE,TX,76020,14,32.899083,-97.531953
721 S HWY 78,WYLIE,TX,75098,8,33.004021,-96.546394
721 W MULBERRY,ANGLETON,TX,77515,11,29.16368,-95.444362
7210 NORTHLINE DR,HOUSTON,TX,77076,42,29.866397,-95.396813
7215 WINDFERN RD,HOUSTON,TX,77040,39,29.877543,-95.537972
725 MEDICAL DR,ABILENE,TX,79601,31,32.450603,-99.712738
7302 OAK MANOR DR,SAN ANTONIO,TX,78229,80,29.500893,-98.575219
7304 GOOD SAMARITAN CT,EL PASO,TX,79912,22,31.845607,-106.559841
7352 WOOLDRIDGE RD,CORPUS CHRISTI,TX,78414,16,27.677284,-97.350215
7400 CLAREWOOD DR,HOUSTON,TX,77036,9,29.711215,-95.513961
7400 CRESTWAY DR,SAN ANTONIO,TX,78239,9,29.519174,-98.343847
7441 PASEO DEL NORTE,EL PASO,TX,79911,12,31.886924,-106.567008
746 ALPINE DR,KERRVILLE,TX,78028,32,30.066711,-99.111902
7480 BEECHNUT,HOUSTON,TX,77074,14,29.692579,-95.517991
7499 STANWICK DR,HOUSTON,TX,77087,20,29.67687,-95.291764
750 N TEXAS AVE,WEBSTER,TX,77598,24,29.538203,-95.127822
750 ROLLINGBROOK DR,BAYTOWN,TX,77521,3,29.761505,-94.971911
7500 OAKMONT BLVD,FORT WORTH,TX,76132,16,32.664073,-97.42413
7505 BELLERIVE,HOUSTON,TX,77036,21,29.712466,-95.516287
7514 KINGSLEY ST,HOUSTON,TX,77087,31,29.686537,-95.292411
7602 LOUIS PASTEUR ST,SAN ANTONIO,TX,78229,20,29.506733,-98.5707
7625 GLENVIEW DR,NORTH RICHLAND HILLS,TX,76180,7,32.824402,-97.212975
763 MARLANDWOOD RD,TEMPLE,TX,76505,6,31.061565,-97.363276
7633 BELLFORT,HOUSTON,TX,77061,33,29.673438,-95.285154
7700 MESQUITE PASS,CONVERSE,TX,78109,12,29.531883,-98.337461
7703 BRIARIDGE,SAN ANTONIO,TX,78230,45,29.509126,-98.550569
777 N POST OAK RD,HOUSTON,TX,77024,15,29.780451,-95.458651
7801 WOODWAY DR,WACO,TX,76712,9,31.504362,-97.207092
7804 VIRGIL ANTHONY BLVD,WATAUGA,TX,76148,24,32.887714,-97.256676
7820 SKYLINE PARK DR,WHITE SETTLEMENT,TX,76108,14,32.755498,-97.449652
7827 PARK LN,DALLAS,TX,75225,6,32.871996,-96.770644
7882 S HWY 181 (NO MAIL SERVICE),KENEDY,TX,78119,13,28.790411,-97.854964
7887 CAMBRIDGE ST,HOUSTON,TX,77054,13,29.691543,-95.391839
7910 FRANKFORD ROAD,DALLAS,TX,75252,3,32.997424,-96.765562
795 LINDBERGH DR,BEAUMONT,TX,77707,15,30.069271,-94.154812
800  W  13TH  ST,OLTON,TX,79064,26,34.176052,-102.138236
800 W HAYNIE ST,LLANO,TX,78643,19,30.750658,-98.683815
"800 W. RANDOL MILL ROAD, 6TH FLOOR",ARLINGTON,TX,76012,6,32.751424,-97.114842
8001 WESTERN HILLS BLVD,FORT WORTH,TX,76108,38,32.739592,-97.456738
801 CANTWELL LN,CORPUS CHRISTI,TX,78408,52,27.799714,-97.4481
801 SOUTH LOOP 250 WEST,MIDLAND,TX,79703,4,31.972645,-102.145106
8017 W VIRGINIA DR,DALLAS,TX,75237,21,32.650433,-96.87639
8020 BLANCO RD,SAN ANTONIO,TX,78216,45,29.535628,-98.50568
803 BIRCH ST,CANADIAN,TX,79014,21,35.904192,-100.383031
803 S ALAMO,LEVELLAND,TX,79336,27,33.581663,-102.348208
805 HARRISON ST,MATADOR,TX,79244,25,34.024779,-100.822552
806 STEPHENS ST,CLYDE,TX,79510,12,32.395265,-99.490228
807 W BOIS D ARC,HENRIETTA,TX,76365,7,33.812912,-98.202984
808 GUADALUPE,KERRVILLE,TX,78028,29,30.05458,-99.163813
808 S ROBB,TRINITY,TX,75862,14,30.925955,-95.37654
809 E NAVARRO,DE LEON,TX,76444,16,32.116335,-98.52726
809 NE 4TH ST,KERENS,TX,75144,10,32.136935,-96.219951
810 BELAIRE STREET,JACKSONVILLE,TX,75766,18,31.96491,-95.224412
810 E 13TH AVE,BELTON,TX,76513,6,31.066305,-97.448078
810 INDUSTRIAL AVE,COPPERAS COVE,TX,76522,19,31.123639,-97.892515
811 GARNER RD,PASADENA,TX,77502,11,29.684186,-95.20191
812 W HOUSTON AVE,MCALLEN,TX,78501,48,26.195609,-98.229031
815  E  GRAYSON  ST,SAN ANTONIO,TX,78208,29,29.443598,-98.47145
815 N PEACH ST,TOMBALL,TX,77375,17,30.104305,-95.614201
815 S VOSS RD,HOUSTON,TX,77057,23,29.759824,-95.500125
817 W CENTER,SHERMAN,TX,75090,21,33.628709,-96.616812
820 CAMELOT DR,HARLINGEN,TX,78550,51,26.170073,-97.670382
820 JEFFREY DR,WACO,TX,76710,4,31.527189,-97.185687
820 SMALL ST,GRAND PRAIRIE,TX,75050,21,32.74955,-96.993364
8200 WALNUT HILL LANE MAIN 5,DALLAS,TX,75231,8,32.879131,-96.763505
821 US HWY 81 W,NEW BRAUNFELS,TX,78130,81,29.696878,-98.070726
8221 PALISADES DRIVE,LIVE OAK,TX,78233,45,29.556038,-98.360283
8223 BROADWAY,SAN ANTONIO,TX,78209,63,29.512365,-98.466515
824 W MAYFIELD RD,ARLINGTON,TX,76015,13,32.689851,-97.117846
825 W FAIRWINDS,HALLETTSVILLE,TX,77964,22,29.438435,-96.956894
825 W KEARNEY,MESQUITE,TX,75149,36,32.771364,-96.609349
8300 ELDORADO PKWY WEST,MCKINNEY,TX,75070,4,33.17654,-96.725448
8300 WURZBACH RD,SAN ANTONIO,TX,78229,16,29.517305,-98.574816
8306 HUEBNER RD,SAN ANTONIO,TX,78240,15,29.515319,-98.606229
831 TEHUACANA HWY,MEXIA,TX,76667,5,31.68759,-96.495239
8383 MEADOW RD,DALLAS,TX,75231,19,32.886389,-96.758982
841 RICE RD,SAN ANTONIO,TX,78220,44,29.409696,-98.403986
8450 WILL CLAYTON PKWY,HUMBLE,TX,77338,41,29.978121,-95.25721
850 12TH AVENUE,FORT WORTH,TX,76104,22,32.735636,-97.349046
8501 LAURENS LN,SAN ANTONIO,TX,78218,39,29.511012,-98.430304
8502 EDGEMERE,DALLAS,TX,75225,2,32.865692,-96.7953
8503 MYSTIC PARK,SAN ANTONIO,TX,78254,38,29.522077,-98.64356
855 E BASSE RD,SAN ANTONIO,TX,78209,16,29.498146,-98.471844
8550 JASON STREET,HOUSTON,TX,77074,2,29.685949,-95.527022
8580 WOODWAY DRIVE,HOUSTON,TX,77063,10,29.742857,-95.513237
8595 MEDICAL CENTER BOULEVARD,PORT ARTHUR,TX,77640,13,30.068425,-94.122915
8600 SKYLINE DR,DALLAS,TX,75243,14,32.906693,-96.75565
8611 MAIN ST,NEEDVILLE,TX,77461,9,29.401102,-95.840233
8615 LULLWATER DR,DALLAS,TX,75238,8,32.866285,-96.705156
8702 S COURSE DR,HOUSTON,TX,77099,26,29.681171,-95.563457
8703 DAVIS BLVD,KELLER,TX,76248,7,32.91163,-97.188171
8707 LAKESIDE PARKWAY,SAN ANTONIO,TX,78245,35,29.43267,-98.656818
8800 FOURWINDS DR,SAN ANTONIO,TX,78239,68,29.520331,-98.392805
8810 LONG POINT DR,HOUSTON,TX,77055,31,29.803837,-95.507386
8820 TOWN PARK DR,HOUSTON,TX,77036,61,29.714576,-95.540781
8825 LAMPLIGHTER LN,PORT ARTHUR,TX,77642,30,29.955537,-93.982588
8836 MARS DR,HEWITT,TX,76643,9,31.480005,-97.209195
884 HWY 84 W,TEAGUE,TX,75860,3,31.638255,-96.276712
8861 FULTON ST,HOUSTON,TX,77022,13,29.840541,-95.376179
8902 WEST RD,HOUSTON,TX,77064,38,29.903893,-95.545852
9 MEDICAL DR,AMARILLO,TX,79106,20,35.207792,-101.897309
900 COLLEGE AVE,BORGER,TX,79007,19,35.657992,-101.404276
900 GEORGE HOPPER ROAD,MIDLOTHIAN,TX,76065,15,32.473703,-96.983102
900 S 12TH ST,MCALLEN,TX,78501,39,26.195156,-98.233994
900 S BAXTER AVE,TYLER,TX,75701,20,32.338883,-95.285349
900 S STATE ST,BRONTE,TX,76933,7,31.879076,-100.293476
900 S TEMPLE DR,DIBOLL,TX,75941,14,31.170691,-94.788968
900 W LEUDA ST,FORT WORTH,TX,76104,19,32.736668,-97.334598
900 WESTPARK WAY,EULESS,TX,76040,18,32.82502,-97.12409
9001 N LOOP,EL PASO,TX,79907,20,31.704439,-106.31587
9009 FOREST LN,DALLAS,TX,75243,14,32.910254,-96.748969
9009 WHITE ROCK TR,DALLAS,TX,75238,18,32.870721,-96.730089
901 CENTRAL TEXAS EXPWY,LAMPASAS,TX,76550,15,31.059156,-98.169887
901 DISCOVERY BLVD,CEDAR PARK,TX,78613,13,30.52185,-97.820772
901 PENNSYLVANIA AVE,FORT WORTH,TX,76104,23,32.738134,-97.334448
901 SEVEN OAKS RD,BONHAM,TX,75418,9,33.587324,-96.167989
901 W INTERSTATE 30,ROYSE CITY,TX,75189,11,32.96059,-96.343275
901 WILDROSE LN,BROWNSVILLE,TX,78520,65,25.939249,-97.507505
9014 TIMBER PATH,SAN ANTONIO,TX,78250,35,29.486379,-98.661387
902 E HACKBERRY ST,LEONARD,TX,75452,25,33.388291,-96.238872
902 E MAIN ST,SAN AUGUSTINE,TX,75972,31,31.526703,-94.092641
902 HILL STREET,LUFKIN,TX,75904,9,31.340767,-94.74761
902 N MAIN ST,SAN ANGELO,TX,76903,9,31.477643,-100.431309
903 E HOUSTON ST,CLEVELAND,TX,77327,23,30.341775,-95.078655
905 OAKLAWN,PLEASANTON,TX,78064,39,28.956451,-98.492644
907 GARWOOD,SMITHVILLE,TX,78957,19,30.012362,-97.150413
910 E PIERSON ST,HAMILTON,TX,76531,21,31.697071,-98.11368
910 MIDWESTERN PKWY,WICHITA FALLS,TX,76302,19,33.876253,-98.482102
910 S BEECH ST,WINNSBORO,TX,75494,25,32.948315,-95.288657
9101 PANTHER WAY,WACO,TX,76712,14,31.474973,-97.207606
9114 ROYAL LN,WACO,TX,76712,8,31.475676,-97.208422
913 HWY 90 W,CASTROVILLE,TX,78009,29,29.353923,-98.882302
914 N BRAZOSPORT BLVD,CLUTE,TX,77531,20,29.033748,-95.399086
920 E AVE L,SILSBEE,TX,77656,15,30.342776,-94.171861
920 E FM 1187,CROWLEY,TX,76036,12,32.565167,-97.354264
921 NOLAN ST,SAN ANTONIO,TX,78202,61,29.427953,-98.469121
9250 HUMBLE-WESTFIELD RD,HUMBLE,TX,77338,26,30.000314,-95.284882
93 ISAACKS RD,HUMBLE,TX,77338,16,29.993378,-95.259504
930 ROY RICHARD DR,SCHERTZ,TX,78154,35,29.567813,-98.257995
930 S BAXTER,TYLER,TX,75701,36,32.33868,-95.285351
9300 LAKEVIEW PKWY,ROWLETT,TX,75088,6,32.919435,-96.511967
931 N BROADWAY,ASPERMONT,TX,79502,6,33.151588,-100.227926
941 SCOTLAND DR,DESOTO,TX,75115,26,32.643117,-96.880291
950 CAMINO DEL REY DRIVE,EL PASO,TX,79927,44,31.688747,-106.291329
9505 NORTH POINTE BLVD,SPRING,TX,77379,20,30.040876,-95.528919
9602 HUFFMEISTER RD,HOUSTON,TX,77095,41,29.917738,-95.627709
9650 KENWORTHY ST,EL PASO,TX,79924,15,31.887775,-106.431447
970 HILLTOP DR,WEATHERFORD,TX,76086,7,32.744916,-97.778183
9738 WESTOVER HILLS BLVD,SAN ANTONIO,TX,78251,33,29.465478,-98.683439
9801 S 1ST STREET,AUSTIN,TX,78748,10,30.162919,-97.800044
9808 CROFFORD LN,AUSTIN,TX,78724,23,30.330419,-97.619419
9814 GRANT RD,HOUSTON,TX,77070,1,29.967762,-95.564845
983 N TEXAS STREET,EMORY,TX,75440,47,32.883404,-95.761856
99 RIGBY OWEN RD,CONROE,TX,77304,22,30.319122,-95.485228
9903 HUNTERS POND,SAN ANTONIO,TX,78224,27,29.319224,-98.543754
9922 STATE HWY. 151,SAN ANTONIO,TX,78251,69,29.445351,-98.677167
999 RAINTREE CIRCLE,ALLEN,TX,75013,15,33.112328,-96.677463
HWY 83 WEST,HEMPHILL,TX,75948,13,31.340021,-93.862204
ONE HEARTLAND DR,SAN ANTONIO,TX,78247,19,29.345623,-98.530869
TEN MEDICAL CENTER DR,CLARENDON,TX,79226,31,34.968107,-100.891655